Number,Name,Suffix,City,State,ZIP
Number,Name,Suffix,City,State,ZIP
Number,Name,Suffix,City,State,ZIP
9271,QAWGIELAY,AV,ZETCAYCOUSTADT,LA,38160
6775,HIECREPUL,ML,HULRHOVYOUFURT,WV,60851
7043,NAISIQAI,VDCT,ZUECAITAEBURY,LA,15204
8070,ZUYTEUEQOEW,BRKS,WUENEIFAIKIRK,SC,53579
2049,ZISVRENAW,TPKE,LIEUSOEWHOISHIRE,PR,45325
6167,HEUTOODY,VILLG,HAECOURZUYBURY,TX,47382
3838,DEUTOUGHJAIGH,EXPW,TYUFIELAIGHSHIRE,NE,83940
2490,VETGEUTET,AV,WIEWTEPAIGHSTADT,NE,23358
8523,MAIGHMISER,AVN,QIEUCYUPAIKIRK,WA,20687
8330,ZETDURNOA,DRIV,REUEKAUNIEWVILLE,OR,57812
1010,WEWQUCRE,STREME,FOIFOIDOUGHFORD,OK,81193
6942,JAIGHDOWQAW,VILLIAGE,NFOAVAWFORD,NJ,50435
9180,HUYTARLIGH,FRT,DEIGHWETNOOSTADT,IN,43314
7617,QEAQOYMOR,GTWAY,KOUJEWTOURBURY,AK,92870
1267,MAIGHJIEDUE,DRS,WETLYUPOUBROUGH,AE,74572
7070,TOWSUJOI,DRIV,KOWHREXOURFORD,IL,33716
3510,MYULOOCYE,PRR,KYXURLEIFIELD,HI,54578
5332,GARZOEWHOA,SQU,COURXYUDYBROUGH,CO,51539
8290,XYREOSOR,TRKS,SAYMOIDAYFIELD,WY,88341
9741,VEUTNOY,BOULV,TIEULUOYRUOYFURT,NH,65291
5447,HZEOSAE,FREEWY,MAUMOWLOWBURY,WA,18545
8677,PORGEWKU,DVD,GAIWEUVEUBURY,NV,42252
5784,RYUDOWNEW,TRACES,TYOUHOUHARSHIRE,KS,92027
2553,SITEEMIE,CMN,GURVYUKUEBURY,ID,38304
4530,JAYQEAUZUY,MNT,HUEHEIGHCFIELD,GU,96203
3687,DUEKISGU,WL,CEAUXUYFOWBROUGH,WV,55180
9986,GIGHRISJIGH,VDCT,SIEWVISRURBERG,PR,36412
1123,QEIGHNIGHRIEW,AVN,MAUDARGOURFIELD,MO,76581
4918,VORQETWAW,RDGE,PEITEAJEUBURG,MS,99275
9827,XEUENOOTIS,VILLAG,FETSYUPKIRK,AS,52193
9947,WOAHETZOEW,TRNPK,HERPULVAIBROUGH,CO,87579
3776,DYUZAUWOI,DVD,GORTOESEOFORD,NH,75444
2770,ZEAUXOWROI,LNDNG,XOOVARVETBROUGH,NM,38247
3880,WEIGHNOUZOR,SQRS,PUETEUNEUEBURY,VI,83595
4869,FEUNYEXOW,PATHS,QHOVAWLOURBURG,WY,43995
2839,MAUXEIGHVAIGH,STR,KAEVULKOYFURT,SD,84148
3639,QEAUNEILIS,STATN,XAIGERVUESHIRE,DC,71272
9284,PAUMOREY,PATHS,WYOUJUFUOYBOROUGH,KY,18456
5062,PORTEETUL,BAYOO,CAIXUYJOWKIRK,NJ,91135
4644,HEOPIENER,CRSENT,HEUVIEMRESHIRE,AS,92128
1105,CISLISVY,MTNS,PERSIEWLORBROUGH,UT,16585
9737,HYUKOURTEAU,RANCHES,QELEOLAWBERG,ID,74142
7133,NEAUZIEWVRE,TURNPK,FOANIEUZAWBOROUGH,AZ,66749
2717,POUGHXEWGOI,HIWY,HIEWRETXOBERG,FL,39641
4386,DARWIEULIGH,CRSENT,HYULIGHHOEFORD,HI,66099
1392,VURGYQIGH,VALLY,VAYTORZAYBURY,OK,23243
4804,ZHOZIGHPEU,SPRNG,KULAESHOFORD,SD,75723
1486,JAETOYDOR,EXPRESS,ZOEWLETQHOBURY,IN,87051
2968,SOATORTUE,ISLND,NEUQOEWKUYBURG,NY,83069
9113,XEWWOIMAE,BAYOO,HEADOEWWURBROUGH,AS,56231
5567,QOOKEAGOUGH,STREME,MIEMAIGHZOASTADT,WI,99569
4536,MKORCOW,MISSN,QOIVEHBOROUGH,PR,42722
9586,THOCREFRE,SKWY,FOEPEAUPEABURG,ID,70689
2985,KOOHOTIE,HARB,JEIVREHOYFORD,NY,44964
3309,FOZOXUE,BYPA,ZAYKOWNOVILLE,MI,30660
4642,NARWOOXIEU,LNDNG,POOLERSIEUFORTH,AA,39174
9003,MEIGHNOOGUOY,CIRS,COUJEUEXAUFURT,SC,60690
8443,CIEWQEWXO,VILLIAGE,TOIXOURWUEBOROUGH,KS,92998
7815,FOWDIZYE,SUMITT,KEIGHREIGHDOEFORTH,FL,64888
6290,JUMYEZEUE,STREME,CEUENUQULFURT,IA,79902
7338,GISZEEHU,STS,MAIGHXOWTEUESTADT,NM,25501
1647,FUYLIDOI,BYPAS,XEAUXOEMYOUKIRK,LA,26210
1297,JEWJEUEQOI,LOOPS,CAEMENUBROUGH,IN,55454
5194,RURIGHWUR,BG,PAENEYFEIGHBURG,CT,76620
4982,LURGETPHO,BLFS,ZIEUKIEUQYKIRK,MS,59420
8487,MUESEUWOUGH,GROV,DIGHPOIVAIGHFIELD,AP,91316
8256,LUWEUNEU,TUNNL,SIEQUDEUSTADT,MO,42172
8516,DUOYFERXAW,TRACES,NYOULYEFOAKIRK,MP,99994
7045,LEWFOOCOR,WY,GETSAYWISFIELD,OR,53937
1925,KAWKORJEAU,FORG,DERWUENURFIELD,RI,21709
5509,WUCOWVEAU,ANNX,FOANAIVOURVILLE,NH,83701
8247,ZIEWZAWPIGH,ML,GEODOWMOFORD,MN,43904
3528,SERVEAUFU,CIRS,NOURPOIKREFIELD,UT,16734
8979,HAWHETZUE,CRSSNG,SEOMEIGHTYESHIRE,IN,29840
4588,DOEWHIXU,TRKS,CEUEGEUQOUBOROUGH,MA,58774
1687,XIEUTEUVEA,GARDN,KOWPOVARBOROUGH,NH,60367
5425,WEIGHFEUZAW,PSGE,ROURWOOJEYSHIRE,WA,13057
9305,DARPREDAW,STRAVN,SUHOULULKIRK,TX,92938
1196,XUVOUTUE,MSN,GEIGHPIEUDURFURT,TN,69808
9278,HYOUQAIXUE,ALLY,MUOYXIEWOEWSTADT,VA,64055
1764,SRESOUP,JCTNS,CEGOYMUEFURT,OK,93097
7836,SEAUXEAULER,FRDS,PIEDETSIGHFORD,VA,22279
9004,KEIGHDAUMOA,VILL,ROYSOOXOOVILLE,KS,64521
1247,ZEADYTYOU,MTNS,DIGHWHOMAUSTADT,OR,27966
6176,MISJYUZOY,CNTER,GOEFYPOFURT,MS,63835
1549,VULMYESYOU,RVR,XOKUXOUGHBERG,NM,71511
8500,SHOHURHYE,CURV,TAYCOITOURFORTH,MS,76045
9315,KOYFIEMAR,PIKES,RIGHMUYWEOBURG,MD,33451
1516,LETMAYLHO,FRWY,SAWXYEGARBOROUGH,NV,80624
1987,NOURDAIGHPYU,GATWAY,ZODETTVILLE,NE,86068
5952,HOYDOUGHPOEW,BOUL,QOURGEIFOOBURY,CA,87793
9017,WIGHGISKOE,BRKS,ZEOMEYNETBERG,ND,98677
6644,LYKULPUR,SQS,CYFOXEOFORD,RI,14384
6804,DOEWDARDOE,PRR,JEITARHAUBERG,MI,78635
7160,WURCETHAU,LGTS,FERFOUJOUKIRK,OR,38123
5849,WOUVIFOA,VILL,ROWFOWCAYFURT,NC,53387
5598,JAWTOYPO,DIV,ZUEPEUENEUBURY,OK,81322
4211,LYETEWOUGH,BRNCH,CEYDEIGHTIEWSTADT,SD,73132
7762,REECIEWVAE,BGS,XUYNOURWEEFURT,AR,77867
3219,XRETIEDEW,BG,MEAUMEWEWKIRK,WY,47958
5682,PAIGHCEEJEY,CTRS,ZUESOUGHSYUBERG,HI,12691
7196,NULMERPEY,BG,KEUFOEWHOYSTADT,NH,91319
1772,TIGHQURFOW,BRDGE,WEICYEKUEVILLE,OR,94586
4655,LEAGOUGHDOO,LODG,FOOZEIGHLEIGHSHIRE,AS,48795
2855,TEYTOOROE,VIST,VEIGHPOUGHFEEBOROUGH,IN,91758
2014,KUOYCYOULIS,GDN,JOUGHJORDEOFORD,VI,28965
4975,JEUELISZEY,TUNNL,PYUPIEWMAUBROUGH,NY,77260
8879,DOUGHLERTEA,BLFS,KAEMULLOEWFORD,NH,52899
4064,WEIWYOUTUR,VILL,DEEVIGHTHOVILLE,DE,12987
9207,VAWKYEKOUR,CIRC,JEUVERHOAFIELD,AK,17758
4761,QOUSEAXUY,RANCHES,ZOENETAEFIELD,RI,64095
7822,XUTAYQEUE,SHOAR,WEAUTOUVETFIELD,MD,75991
4054,KURXOIVUY,FRGS,NOAMETHAUBURG,IA,76027
4080,NOURGOURYE,SQR,JULXOYQURKIRK,NE,24393
1153,SUOYXEUECY,EXPW,XOOLOAQHOBROUGH,MI,66399
3950,LURVYXET,BOT,TAIGHNOICEUFURT,PR,74602
1961,SEWKEUVOI,CIRCL,HIGHVOOQOIBOROUGH,AS,84703
4173,VAIQEEWOUGH,JCTNS,QEULEYQIBURG,AK,12875
9761,NUOYQOIQAW,RTE,WYEJYEGOSTADT,IL,54358
2967,VPIEWSEI,STREME,QEWFAIRIEUFORD,SC,22872
3487,SOAQEIDUR,BGS,MEIMIGHTKIRK,AS,19395
6715,DUOYQOEWGIEW,BRKS,JAWSERLAYFIELD,MA,84562
8457,RIEPYEWAR,DVD,FURHYLIEWKIRK,CA,58606
7067,NIEKIEWJAW,HOLWS,DEAUROANYEBURG,MP,20224
4849,WHOQHOMOEW,STN,VURRAIVOFIELD,TX,26412
9956,WYUHERWEO,GRNS,WEUEQHOWOUGHBOROUGH,VT,82507
4283,JOEWMAIVI,PSGE,MOEWCEARIEFIELD,OH,55977
4722,LEIGHRAITIE,BOULV,NUEFYEFIEUBROUGH,SC,83634
3511,CIEWYCAU,AVNUE,DERSAWWOWVILLE,FL,68920
2221,NOEGURRET,MSN,NAICORHERBOROUGH,AK,72358
4937,FEEVAUPOE,EXTENSIONS,XUEGEYMORVILLE,VA,73166
4905,HEUKEATUOY,BGS,QZOACEEFORTH,VA,20911
5300,NIZAYFU,ISLND,WUOYVAEVOURFURT,AP,49872
1984,PYKURCO,EXPR,VOUGHLEUJISHIRE,ND,36617
9079,WETHEAUTUR,PLZA,VREHIEVAEBERG,VT,79471
2792,PARWEUERUE,SPRNGS,QOAZEIWIEWBURY,MI,23168
3952,RYUCHOWIE,MEDOWS,QOYNYOUREAUSTADT,DE,59264
8468,LIGHTOAHOY,PKY,WYUSRERAUFIELD,UT,90253
8075,JRENAWRIEW,CRSNT,FUEHREQAYBERG,SD,81780
3546,TEJOPIS,MTWY,XAIGHLUEKEAUBURY,DC,55914
3848,DEUEQOUGHHUOY,CNTR,QUEDAECOWFORTH,RI,39977
2322,RYEFARSOUR,BRDGE,XYUDORPETSHIRE,RI,18069
9530,WUELULMIGH,MNT,XEIVIEWARBERG,NE,31778
1979,SUYSEYSAR,ANNX,TYEDERFOOFIELD,MT,16552
3278,TEOWEILYE,DRV,REIGHRHOQARFORTH,IA,54919
8143,MIGHLEIGHCUOY,PATHS,MEECERSHOFORTH,OR,89261
9411,RIGHNIEUQOEW,STS,CEYHEAGEAUSHIRE,AE,52851
7935,HISIEUKUE,GARDN,MAELEYROEWFORD,TX,67944
8752,FOEWNIEUMAW,ISLNDS,GUCYOUTEYBURG,AS,63965
6124,ZZOZO,STRVN,XISMEINAUSTADT,MA,25613
3587,HOATEYCIGH,MTNS,MOOMULPEABURY,TX,81294
9819,QEUEFEEZO,RVR,DOUKYUNAYSTADT,AK,90901
1998,KOIZILOU,BYPS,PIECYELAIFORD,SD,77305
2341,NEAXYNOUR,DRV,MREFEAWEUESHIRE,MP,63282
4389,WYOURAYWER,CENT,KEETULVEIGHBURY,ME,61816
4312,RERDULRAY,HARB,POOPULLYOUBERG,HI,60963
9971,PEONYUPOUGH,BYU,WEIGHVULTOEWSTADT,VI,22387
1732,REISEAUSAY,JCTN,XERREYPOIFORTH,NC,75540
5473,KOELAIDEY,GRDEN,CEEDIEWKIBURY,HI,41984
4528,MEWWHOCAR,SQRS,PETPULTARBURG,IN,38316
5998,WAIGHLOEPET,RIVR,ZOURMEOLOEBURG,MP,61328
9829,SOEPISEI,EXTN,QUOYTOOFIEBERG,KY,57913
2184,GEIGHPIGHMAU,SPRNGS,KOECAIGHHYUVILLE,SC,95953
6310,WOATEUEMOE,HOLWS,NOURJEUPAYBURY,NV,40502
7386,TEYVOSAY,ISLNDS,HEAHIEUHORSTADT,RI,30344
7947,SOXUYMYOU,FRWY,LOOCAWREAUFIELD,MN,72268
5562,SFEEVEIGH,PNE,MOEDOWKEYFORD,WI,89846
5620,PEOCEWCER,EXTN,KIEUNOIDOBOROUGH,NH,95648
5912,JULXOETER,JUNCTON,WAITEACREFORTH,NM,98999
7217,ROAFARMOW,DRIV,JAIGHCEXYUBURY,GA,29567
5301,QETJUYDOU,FRT,KYOUXOYJETVILLE,WI,32844
8124,SOANEUZOE,MTIN,MOWJAUQEUFORTH,MS,29729
4495,KEEGISDEO,ISLES,CORSAITIEWFIELD,MN,86530
2663,WOWVOUGHLEE,DVD,LOUGHSYHUVILLE,AR,30969
5669,TUXOOGOO,TERR,SOWGOEWJAWBROUGH,IA,52102
8584,JIEUQEAPOU,OVL,FUXEEWIGHBROUGH,ND,74242
2414,WEIGHHYOUNET,SHOAR,FAIGERFORSTADT,DE,80229
2659,VEIWEYSIGH,FORESTS,XOHUYJBROUGH,OK,29266
7272,FERPIEUQIGH,WY,ZEAUMIEQYOUFORD,HI,70034
3392,VEWQAEGYU,EXTNSN,ZUFARPYOUKIRK,UT,70870
9964,NUYXOJOE,AVNUE,CEAUNEALHOFIELD,AE,21186
2714,XYEFYULO,RTE,JEYGOUVEFORTH,MT,18896
3292,TYWAYVIE,SPRNG,KEAQREMOFURT,AE,42497
3210,XEITYOULRE,PARKWY,FURYUNOYBURY,KY,13166
8447,NOILEIGHGER,BLUF,REWDOYPOYSTADT,ND,24957
5126,KAUWULJOY,PKY,VYUTETFOYFORTH,AP,47883
2621,XYOUROHAIGH,CVS,WIGHTEIKOIFORTH,AS,71257
5912,FUETOANOI,CNYN,TEAUNEIGHMYEBROUGH,NH,13962
3716,KAWPOEWCIS,CURV,FOEWGOOMEAUBURG,VI,38401
9420,SEONISHIS,PATHS,CYELIEFOEBURY,CO,86320
2286,WHOPOWQEA,DRV,XUOYFUEDOAFORD,NJ,59735
5655,ZEYQHOR,SQU,KUOYROEWWOEBROUGH,FL,53732
7743,PUEDOEQOR,VILLAG,NHOZAIJOEBROUGH,CO,28536
1875,ROYHAWVEY,XRDS,MUYHISQOABERG,ME,67506
4576,SOUWEONOE,FRRY,KOWZYEFOYFORD,VA,61719
7733,TAIDOWRIEW,PLZA,MOULOVEIGHBURG,CA,35247
6782,NHOFISH,MSN,RIEWZIEUMISFURT,VT,38384
9586,MEAUKINYE,CENTRE,ZAUQIEWFIEWFORTH,AR,31145
3967,DEYCOEQU,MSSN,HIEWFEIWUFIELD,DE,54966
9293,SEYMOEZAY,PRK,ZYEWIGHROURFORD,KY,35982
5451,LYDARXAY,HRBOR,POAXIESYOUSTADT,NH,56713
5378,PURROURLIS,CNYN,JEGEIKOUKIRK,AE,62395
2044,ZOOFHOHEU,UNS,ZOYPECREKIRK,MN,40051
8137,GARJUEKYU,TRLRS,PAIGHZUOYJYUBERG,MS,61743
2684,XEAJAWVAI,BOULV,JOIDITEOFORTH,AA,52500
4887,WHOJUEVU,MNT,GERQAIMYOUSHIRE,AS,81790
6845,PUTEYRUOY,CRSENT,XURNOIKIESHIRE,PA,51148
1302,KOAMUEQOR,RADIEL,MIGHMYUGOUGHBROUGH,IL,91743
4929,KEADAEKEA,SHOARS,HEIZREMEYBOROUGH,SC,74447
6299,QIEUXUYRIGH,SQS,CEWLKEISHIRE,WY,29111
6412,GOZEWDER,STR,ZYEMIDURSTADT,VA,11895
4940,TEISIGHHOW,BYU,CUOYGARCEIFURT,NV,20916
7512,JAECEUTIGH,SPRNG,FETZEXAISHIRE,MD,71001
1771,CEZOYPOR,MTIN,FEAUNAEZOOBOROUGH,DE,70691
1585,RUPOIDET,SPNGS,TETTULZEFORD,CT,64406
9274,TOUGHZUYVEW,SQR,FYUQIEZOWSTADT,VT,13073
3786,XOILEUENOO,TUNNELS,DOWETQUYFORTH,MA,71268
6688,VHOHEXOO,SQR,DIEWHEILULSHIRE,MA,91568
6093,LUYHYUKOR,CTRS,REIKUOYXOFORD,MO,75887
7996,CAWTUEQOW,CMNS,CYENIGHVERBOROUGH,SC,67576
7071,WIGHZHOFYOU,TRACKS,DIECYEQRESTADT,KS,49370
2125,SOESIGHDU,PRK,QOXOWGEAVILLE,IL,80428
8718,HIJHODOO,LOOPS,TAYVOWHURBERG,MA,30021
5947,LOWWAIGHVIEU,VDCT,MOEPETMEIFURT,WA,93648
1598,HYUVYOUCAY,JUNCTN,XOIFOUGHLYEVILLE,CT,29272
4634,MEOZOEWWEY,GRVS,WARSEIGHWHOFIELD,NM,29928
9915,CIFIWUY,SPRNGS,WYUWOANERFORD,MD,21054
2431,GURJAWQIGH,EXP,PREGESIGHBOROUGH,MP,32599
9043,WAWTIENYE,PKWYS,NOACORJURBERG,GU,42017
4324,TAESUYWHO,CANYN,SUOYQOUGHRURFURT,IL,61184
6733,MUWEURHO,VDCT,HULSUOYVEAFURT,TN,76588
3576,LOKEONO,AVNUE,DAIGHRYUJEAUKIRK,MI,39533
5616,LEOWIEULOY,TUNNELS,XIWIWARSTADT,PR,70201
8387,QAEVUESEA,OPAS,MOURQYRULFIELD,KS,78870
4632,JEOCUYGOY,BGS,MOEVYOUCEEBOROUGH,MO,98380
3297,KYUHYEVHO,TERR,COEWMIEUPOEWSHIRE,MP,38578
9867,CUYQEIGHRAE,TRFY,SWOOFAYFIELD,NY,46054
4667,VOOZUOYTE,DRIV,COCOWDURFURT,KY,48946
7950,WYOUFEELY,ISLES,LUYHIGHMEWFORTH,TX,98894
1493,PUYVYUNOUGH,ALLY,SEYCIEUGEAUBOROUGH,CT,48013
1270,TIEUXERHEW,MNTN,VAICAIWOUGHFIELD,OK,50738
7575,DARHETQEU,GATWAY,POEWHOOHEAFURT,NM,51235
6816,LWEUETER,HIWY,JEODAUWOIFORTH,SD,23492
3066,JYOUNOWDEAU,MLS,ZEIGHNEIGIBURY,AP,20171
7078,KEYCEODOEW,RADIEL,VOEGEIGHDIGHBURG,NC,66697
9729,VOSEIGHWOR,AVENU,TEYWEWFUFURT,GA,56505
5802,RULREOREY,VIST,MHEYCFIELD,NM,72534
3712,FHOFOURWEY,FRGS,DOIQEIGHLOEKIRK,FL,17137
6109,CEWWOUTUL,ML,FOURHOEGAESHIRE,DE,14833
5616,THOPFEU,PRR,HEIREYWERBOROUGH,MS,84630
1188,XEIGHFUEWEUE,BRNCH,SUOYTAYHIGHBURG,MA,14046
3352,GAISOEDUL,STRAVN,QUWYUPYUSTADT,VA,61832
4250,TEEXINER,CNTER,SOUGHHAUWOURBURG,ND,62460
8553,TETCARSEI,VDCT,RUOYGOOSUBROUGH,AS,25301
9368,COUGHKYOUREU,BOUL,FAIDISRHOBROUGH,VI,25991
1917,HAYHAEKAI,CENTRE,VOUPUYNORBROUGH,KY,54303
1393,MITAIROE,VST,TOAHYPEAUFIELD,NE,73026
3656,ZOUJUYMEIGH,CVS,NEAFEAUFURBROUGH,MT,33763
2638,VOOPUOYROE,VDCT,CREKOEHEOBURY,TX,99890
1168,PYOUQEISOUR,VLLY,ZEMEUETOASTADT,ID,12319
5885,ZOYFEWJE,MSSN,TOUKAUXERBERG,VA,87010
9186,RIEWGOAFAW,BG,POAREUHOOFURT,OK,84718
2730,WULKAWGEIGH,SPRNGS,GYEJUGYKIRK,MD,98579
2369,GIGHRETFEO,AVEN,DAWLEAUPARFURT,MP,20961
6188,XEAKAIJEU,CRCL,GEEHEUEXAYFIELD,OR,92797
5139,SIEUQOEMAI,TRAILS,FAEJIEUWARSHIRE,IN,19860
4354,FILIEUGET,PATHS,ZODULXREFORD,WI,14271
8718,NUOYQYQAI,SPNG,PUEVEYQUESHIRE,TN,18608
3716,ZAETETQEY,UNS,SETZEAUSOABERG,NM,91501
2658,RIEUKEAMET,EXPRESS,MIESAUFEIFURT,HI,73675
6467,TOUNURCAW,GRVS,QOIXREMEIBURY,IN,12788
6642,SEWCAWDEW,VST,QETDOUGHDEAUFORD,AR,72365
4641,XUECIGHRO,TERR,KREWYUPEUEBURG,PR,46566
3066,VJULZUY,EXTENSIONS,KUYLEIGHDOABURY,IA,21338
3497,QIEVEUVI,ALLY,MEWNOUGHMOIBOROUGH,MN,32304
7412,NORLECUOY,CAUSWA,MOWSOUGHXIGHVILLE,AR,53066
8483,PAUGYCAR,BOT,JARHOAFIFIELD,DC,65295
3745,TIEUWERGIEU,ANNEX,CIERISFEYFIELD,NY,37964
5238,RARVYZUL,DIV,WHOGYOUWURBURG,VT,32055
1710,PIEUCAWLAR,CTRS,GORTEOJAWBOROUGH,IA,26315
8982,SYQYEWUL,FRRY,FYUNIEUFEWVILLE,LA,25463
4233,ROIZISNAE,SHOARS,WYOUWAIFEASTADT,MT,42025
7951,DAEHYOUNOI,OVL,NEYQOIDYOUBERG,AS,35521
7785,XHODYUHUOY,PARKWY,MOETOEHISBROUGH,MO,81171
8017,PYECOURWUL,JCTION,KISJELARBOROUGH,LA,66038
4931,SIEULICOI,EXP,FIEVOIMOKIRK,DE,34410
7352,NOAMURCOO,VSTA,RREPOURLUOYBERG,GU,13326
1055,PYULIEUMAW,HWAY,MEODETOWFIELD,NJ,64773
2076,HAIGHXUEREE,SUMITT,JOQHOWOURSTADT,KY,33289
8683,RUHERGOUGH,RAD,CAIGHLARQOOBURY,DE,82195
3149,DOURGEYPUL,DIV,QIEUPOODOURFORD,AE,65459
7013,TOYMEIGHFAE,STATN,GISFEUGYUFURT,PA,75657
2360,VEAUDEYWIEW,SPRNGS,FAUMEIGHCEIGHVILLE,FL,47617
9083,LIZOWJEY,VIADCT,GIKAIGHRAEBOROUGH,MS,69704
9540,CAYSAEGI,FORESTS,SAUHOIVAIGHBROUGH,IL,65164
2412,ZARJUYFOO,EXPW,VAUNUYJAEVILLE,GA,29823
4074,ZEYJETJUR,OVL,FAIGHDEIGHMOEWFORD,AS,86075
8632,LIEGOWFOUGH,CRSSNG,CIEWNOEKEWSTADT,WY,96056
6013,CUYLAECEI,BAYOO,DOODISNOWFURT,WY,12967
3065,TOELUYSOE,VALLY,LUEDEWVEEBROUGH,TX,69378
5026,GYEGEAZIS,CURV,ZORGEWTUEFURT,AA,21884
3194,QOOPETKOU,PKWAY,XIGHFOOXEUEBURG,NH,22491
4794,LEUEZEIGHLEO,PARKWY,SEENIGHLOUSTADT,KS,47735
6166,TUEZYUMAE,EXPR,WOIQYUXFURT,MT,79049
4930,QEUEVAWZU,MEDOWS,WEYSAIWYEFORD,PR,27878
9455,XAIGHREUDOW,PRK,XARMIECEIBURG,IA,30817
8302,QEAUQOUCHO,STN,DAIFOEXUESHIRE,VT,73642
1073,LEEXOOZEY,STRAVN,PUEMEOSIESTADT,DE,58031
2240,ROURVEAJRE,EXPRESS,TOUGURVYUFURT,IL,12048
5397,RULHUSOI,MNT,CILOEWTOWBURG,SD,69494
2502,LOUHOIMAIGH,HIWAY,QOUGHVEEWBURY,AA,38338
3211,HYECKIGH,CNYN,RREVUEGIEUFIELD,KY,91173
4141,GAIGHWEJER,UPAS,VAIGHJULSHOBOROUGH,OK,70324
8010,QREROEQUR,GARDN,GARPAIGHQEAUSHIRE,MS,94982
6564,FOAMUOYJAIGH,FRT,JYEDOEDEOBURG,AP,94036
1011,TETPIEPOI,AVEN,DEJYFIEUBERG,OH,96435
2256,JIEUNAYLEE,MLS,JEIMOUGHZOWFURT,OH,14184
4564,JOMYUREUE,JUNCTN,CUOYKAIPEAUBERG,NV,44329
5599,KERJEUDOUGH,HEIGHTS,GOYPIEROURBROUGH,CO,13743
9177,VISTEOQOY,SKWY,JOATIKAWFORTH,NH,62595
3445,POHETCEW,HRBOR,MOYGORKOEWBERG,VI,98886
4346,QERQYEKAW,MTIN,VUYJIGHPEUEBERG,TX,34174
2525,JYEDYVIEU,SQR,RYEHYTAYKIRK,MA,13841
3136,RHODEUNEU,MTNS,HUZUXEABURY,VT,24079
7541,KIEJAWFYOU,HARBR,GAISOKIEUFIELD,WA,46928
7205,PAEJIFOUR,SHOAR,NIGHFAIGHMIEFORD,AK,84989
7337,KEAURLIS,SQR,PUYXEACOUFIELD,IA,58062
2705,ZEUEFEIGHQOUGH,CRST,POAGUOYGAWFIELD,ME,87878
2625,KEIGHHULCEA,ISLNDS,FAYZOUGHXESHIRE,SD,25374
2689,GIEWEAUJIEW,JCTN,VIEWMEUELOOFORTH,NH,90900
8424,KOEFEUVU,ORCHRD,JUYNOUGHNEOFIELD,MA,68677
2690,GAINOICUOY,RIVR,GHOWOUNISVILLE,WY,55422
3149,GOOTIEWAIGH,SPNGS,HEUEHUEHIEUBOROUGH,AE,51724
5906,QUENEEZEU,CENTR,ZUOYGETVEEFORD,MP,87347
1069,GAWGAWQIE,OPAS,ZAEXOAWREFURT,DE,65050
8745,MAIGHSOWZEW,TRACES,PAYGAEXEIGHFORD,VA,30702
4463,SETROUGHSOE,STRAVN,JYKEUNYOUSHIRE,GA,31298
2560,DOEWTETSEW,MNTNS,SEUELIEUHREFORTH,FL,77917
3430,XARPIEUPIGH,WY,TUEJETVIEUFIELD,SD,78448
8194,ZAUCEEGEI,CENTRE,ZEOLONEABOROUGH,NC,28559
1346,XOURGETMUL,ORCHRD,QOULOISYSTADT,NC,39813
1219,GERROAZAY,STN,CULLOAROEFURT,ND,76980
7771,PYUZIEWGEAU,HLLW,REOKREFIGHBROUGH,WV,78847
4426,CEAVHOJUE,FRRY,TEWWEAUTOWBOROUGH,ND,45234
4784,KOWCEEQEIGH,FRDS,DAWHOVEIKIRK,AE,20835
6344,JEUKYWAU,CAUSWA,ZYEMONEUEFORD,NY,56473
9755,WIEUTORMAI,PLACE,DYLEERAISHIRE,MO,87702
4684,VIEGUOYZE,OPAS,XEOWUNURBERG,AP,33378
1288,SOWJOUSOU,AVEN,MUMFOIBROUGH,AZ,54201
6315,TOUTEODIE,FRT,KARHOENEAUBURG,CT,72804
5682,TIEUHVOR,HRBOR,HAEZUYRAIFORTH,DE,53475
6277,RIGHKOAFYE,RTE,SELREXOEFIELD,PA,96581
4254,CARCERFYE,SUMIT,DAYGEAUJEYSTADT,MT,83524
6585,GOWVIEWXOA,SUMIT,XOZEAHEAFORD,MP,73036
6529,JARDREVEI,RTE,WEIGHVEAUTOYBURY,NH,70010
6311,LIEHAULEO,CRCL,ZISPOUGHFERSHIRE,OR,98201
4241,NOZEEGEUE,VDCT,ROUGHCEOMOIBOROUGH,TN,65096
5458,DOUGHWEEGAI,CANYN,TYERAETUYBROUGH,PR,26342
1365,NDEIGHVEAU,KNOL,GYTIEUREEBROUGH,NM,94214
3285,HOOJUOYPIE,INLET,MOONERVIGHFORD,WA,37836
4081,HAULORWUOY,BAYOO,FARTOOVEIGHBURY,AS,93865
4031,MOUHREVAY,RTE,HEIXEUKERBERG,MT,64538
8059,WYOUPIEUQI,SQR,NOACARVAIGHSHIRE,MD,40007
3795,SEALURVOW,CVS,MUQEAMIEBROUGH,PR,16957
2182,HARRGOEW,PNE,WHOGURKULFIELD,MS,35028
7769,GAIGEEKEA,RVR,GARXAYPOFIELD,AP,40003
2377,LYERORCEI,HLLW,VARDISOEKIRK,VT,92981
9551,CYOUTAWDYOU,MNTAIN,JARMEAUDOOVILLE,VA,57154
5927,WIEHEAXAE,PSGE,QEUEPOATARFORTH,NH,35235
1359,HAIWEUEZYU,CIRS,QEEKEFEYBROUGH,NH,52254
9090,FEFOUGOW,BYPS,ZYUGIJEYVILLE,MS,16271
6646,KEWCOEWXOA,CRSNT,FURPOECOIBROUGH,DC,90974
3703,SISDULVYU,LOOPS,GURAYKIEWBOROUGH,AS,42179
4776,HIGHLARCAY,PRK,JREHISRYUFORTH,RI,12816
9602,POURXREWAY,GRDNS,LAIGHVAYTYUSTADT,WA,77166
9571,TYUZISX,VDCT,ZAEMEUEVOIFORD,NE,85685
1074,RIGHROURWUOY,JUNCTON,XIEWDYUGESHIRE,AR,91480
9466,HHOVEXOW,TRACES,DISMOIKIEBROUGH,KY,95026
2072,GUOYVOEPU,MTWY,VAIQYOUDEIGHBURG,NC,47142
2864,LAESOEWQUOY,GROV,GIREUEQAEFORD,AR,87537
8226,HHAECOO,ISLNDS,HIEWGAIKAEKIRK,TN,46590
4635,PIGHMEOPAIGH,XRD,VEPOUGHDARBURY,UT,58076
2563,JHOHEWME,ISLES,KEILIEWKHOFORTH,NE,65384
6942,HOEWLIEL,MTIN,ZOURGOIWAYKIRK,GA,59413
6629,ROURDEONAI,CNTR,QOUGHVIWREBERG,ID,57115
9818,KJEAURAIGH,HEIGHTS,GIGHHOADOUGHFIELD,AK,40873
8060,ZAIGAIGHFO,FRRY,MISZETHORVILLE,NM,83297
4589,ZETVEAUMOA,HIWY,ZARVAELAYKIRK,HI,68548
6968,DUYNETDAI,GDN,RYKIEHEOVILLE,VT,94667
7024,FYUZISWHO,TRKS,GERSERUYSTADT,HI,22857
5539,SEUELYUHIS,RNCHS,DIERYUDEAUBURG,KS,77830
6348,QYOUVUZEU,HIWY,GEYWEUEZIVILLE,KS,24304
3982,GEYFIEUHER,GRVS,REAUTAWLREBROUGH,UT,54365
4640,DOUGHQUYFOR,SKWY,KAISEIGHJOAFORTH,CA,81114
8350,LEGOANEAU,CEN,WEUECORZUSHIRE,DC,53890
3075,KOUGHTEUERUOY,EXTENSIONS,QEULOEWKAWFIELD,PR,45372
7348,LAWREISOI,PLZA,RIEWMEUEKUEVILLE,AA,75725
6567,GAIXOUGHTAE,AV,QEAUJIGHKAYBURY,MP,76433
6851,MOYGYETAU,BLUF,KARGIGHNUYBERG,MD,54781
5176,SEIGHNAEPAI,SQU,NIGHNAWDAIGHFORTH,AK,27085
1571,WARSAEDI,TRLS,WIEUVYUTOOFURT,GA,95759
1567,JYUZOURFI,LODG,WOUGHZEUZEAUFORD,ND,91639
7033,RUOYRAWJEUE,OVL,RAILREJUYBURG,RI,30370
3661,VUZIEXUL,MISSION,HEIGHTOAJULFURT,ME,91817
5636,HUYKEISEA,TUNNELS,QYOUVAWROOKIRK,NC,86345
2976,MARDOUGHHAE,EXTNSN,WETFIEWPAYSTADT,CT,82272
7118,ZOAQEXUL,STRAV,TEATOEWLEWSHIRE,KY,49466
3448,FYUHEUEWOR,CANYN,RAWNOOQIGHSTADT,WA,25522
1009,HEGAULYE,MTWY,DOEWWUOYFISSHIRE,WY,61876
8901,VEAULYUPUE,BLUF,DUYJAYREIBROUGH,MA,96702
2367,LOSORKY,MNTAIN,TUYMOOWYOUSHIRE,OH,33271
4433,TOIDEAUNAI,CRSSNG,HOUSOESISFIELD,UT,31391
8442,NUPIEWSEU,CRSNT,FEAHOQEBURG,RI,53858
1158,NUOYFOURCEE,EXTENSIONS,GEOKAIGHWEFIELD,NH,92746
1315,MEESOAZUL,PRR,HMELEUEFIELD,WY,52923
5208,MELIEWGE,GRNS,RYELHOVAIGHFORD,VI,71699
5333,DAUHIERO,STRAV,TUOYWEIGHLYUSTADT,LA,16665
8611,REEQEIROU,EXPW,FURLUELARBURY,AS,74492
9233,NEUFOAVOUR,BRDGE,GEOTAIGHMULBURY,SC,55435
8010,RCUYWRE,MISSN,CYRIEWNAEBROUGH,IA,19793
6333,DIQAUCOR,SHOAR,KHOWIEPAISTADT,SC,71240
4061,NULJAUNUY,BOUL,LEAVEWNHOFORTH,OH,52393
5972,KAWCARLIGH,MNTNS,CUOYJOIXEKIRK,IN,32512
8055,SAWVEOSEUE,MNTN,CAINEUEGEBROUGH,RI,30728
4472,ZOEWFISWYOU,CVS,KEUENYOUMAIBOROUGH,TX,86100
3775,RIEWCISMUOY,FRWAY,GEIGHMREKREKIRK,MO,18868
1005,PREQUPEUE,CRCL,TEIKREHEOSHIRE,IL,72792
4434,ROYDEYVIE,TRNPK,CYPUYCOIFORD,NM,21853
4201,MORFORJY,HT,ROYVOUGHNEUEFIELD,NV,77847
1498,SEIROURJIGH,SPNGS,GOZIGHLYEVILLE,ME,60742
5016,DEISOANOY,CNYN,WAWGEOKIEWFORTH,AZ,16953
2245,LOEMAIGHMIGH,BRDGE,ZOURHOOXEAUKIRK,OH,97223
1285,MAILARWOW,TRNPK,ZOEWLAIGHMOUGHVILLE,WA,79104
1435,JOUXHOHYU,TUNEL,VERFESAESTADT,KY,45043
1142,XIEWDOIGEW,PARKWY,NOORUFIEUBROUGH,NM,35524
3494,METZISHOEW,JCTION,FEUWIEHAEFORD,PA,66197
4124,CURQYFAE,MNTAIN,JAIXEILRESHIRE,DC,68587
1498,NEOCREPYOU,SQRE,POUVOEFEIGHKIRK,TX,80948
8312,FOUGHMYCEU,VIADCT,WULRAUVIGHBURY,CO,80104
8196,JEVUOYDYOU,UPAS,LULCYURAESTADT,KS,78650
7435,KAYWEUETYE,MNTAIN,DOMEIGHREUEBROUGH,NV,34407
6120,LUEPIEFRE,BYPAS,WEAUFOENOEWVILLE,NE,94367
4364,NEUMIEWXAW,SPNG,PEEDAEXEABOROUGH,PR,34396
5808,KAYWYNAW,CENTR,COURCAIGHTISHIRE,MP,21761
5816,TAWSOALUY,STRVNUE,HOWLYOUVEAUKIRK,PA,75059
5827,CAIWEHEE,LNDNG,SEIGHPARFYUVILLE,WV,46496
1210,MEIGHNEIGHCAIGH,BYPA,GOWZETHORBURY,NJ,16876
3257,ZISFEAZAI,STRVNUE,XIGHWIGHHEBROUGH,IL,88010
9856,VOURIEWLOR,RDGE,LHOVIGHVOOFORD,VT,19836
5394,DEAQORCE,VIADCT,NOOMOYMYUBURY,FL,93593
1011,DOUNULPIE,SQR,KEAVEARUSHIRE,OH,61485
5697,WOWVYEQUY,SPNGS,REUJEUEXOUGHSHIRE,IL,52376
5220,CIQEIXEI,BYPA,DHOJEYMOUFURT,MN,33232
3964,GHOCEALAR,HIGHWY,NAUNAEPUOYFORD,LA,50151
6012,MOYJISPOO,STRVN,ZEWLUPUFORD,WY,85210
8243,KUEQEEREAU,MISSN,MARXOOXOABOROUGH,SD,90936
3730,QIEWKUWEO,CMNS,LUKOOZULBURG,MA,98520
7215,ZOWSUOYZIEW,STRAV,QYEMUOYPAWKIRK,CA,73779
9244,XAISEEPE,RDGE,ROUGHVOINAWBERG,ME,23606
7850,SAYDEOVOI,HOLWS,FYQYUQOFURT,NH,81423
9184,SOIJREGOUGH,SUMIT,WIEWJREFOUBURY,MT,38927
5531,TARQOURREAU,CMP,PIEWQIZIGHBERG,AZ,55037
2728,MOEWGULWIGH,HOLLOWS,NEIFYUGUYBURY,PR,96651
6682,FIXAEZEU,RTE,LEAUDUMEEVILLE,VA,73925
2978,CUYTEYLOW,AVNUE,TAWDETTOUBERG,AZ,29675
8184,SEAUJOURJIE,TRACKS,REACHOCORBERG,WI,43294
4001,FOITULPUL,SHOARS,DOPERTEAUSTADT,TX,54706
6309,TETFUEROUGH,KNOL,GOMOIPYOUBROUGH,MS,81853
1266,GISXORXIE,FORESTS,TAIGHMOUXOURKIRK,GA,22227
6774,ZXIKI,SUMITT,KOURZISFEAFURT,IN,96372
2404,LEWPIEUNER,CENTR,DOIFDORBERG,NH,71007
9027,ZAIVYSE,FRWAY,DAWJOEWTOIBERG,MN,68501
7833,RIMEIXEW,SPNGS,GISKIEXOEWFORD,WV,63144
7493,DEWHOITOI,GARDN,KAYWOWJETKIRK,CO,75077
1916,GISHEAUJEE,TPKE,VAEGOAXEUBOROUGH,ND,86096
6643,MHOJUDEA,STRVNUE,DUWOFOOFORD,NH,91384
1874,FORCOWLEW,CENT,POEWSUOYCOUGHBURG,NE,28029
5265,SYOUGEOHO,STS,MOEWPEUENAIFURT,PA,50499
5739,VAWXIEG,MISSION,REIGHGOEQYUSTADT,MT,70917
9478,JAEHRECOUR,DRS,HOUNQIGHBROUGH,WY,21678
9585,VURHAIGHNUR,STREME,QIEWXOEWZUFORD,VT,66415
1757,ZUFORFEUE,FRGS,CIGHNIELYESTADT,NM,54962
2069,SERXREXI,TUNEL,HAUCEATARVILLE,OR,35962
3630,DOEWTEWXIEU,TURNPK,WUOYCULNEUSHIRE,CT,22989
7275,REOJERHUR,DRIV,CISWIEUMEIFORTH,NJ,70048
8968,NOEWDUOYDEW,AVNUE,CIGHSHOCAIGHBROUGH,IA,11502
8464,COUXOICIGH,GLNS,ZYUNEGOOFURT,IN,37924
1554,RISHOARYU,EXPW,DOICOUMISBURG,WI,48386
8286,DAISEAUPYE,XRD,XISNIEWFEWFIELD,OR,85466
4409,QUEPUXEO,STATN,SEUEGIVOUBOROUGH,AE,24356
3575,MUEQEADUR,RAD,SEYGAWKOEWFIELD,VI,81345
1260,KEIGHTUOYCUR,CNTR,FIECHOJOURFORD,ND,85341
7171,WAUWOJOEW,MSSN,LOURGEIRAEBOROUGH,ID,13177
7631,ZISDUQAIGH,EXPRESS,PAINHOLAWKIRK,LA,34874
9301,QURZUOYJOI,ORCHRD,KISZHOXOWFORTH,AK,29534
4307,DOEQEANIEW,HIWY,JEEMIEWNETBURY,RI,61054
8476,FORJYFEW,ANNX,GEAJOAFAIGHFURT,GU,14161
9353,HOUZEUEDAI,STREME,FEROEWLEIFORTH,GU,94487
5041,WAYFEQYE,SUMIT,PIEUWEYREAVILLE,MS,18803
1202,QEIHOURNEU,HARBR,XAUSAUZOFORTH,WV,19534
5798,FOUMEAUFAE,DIV,ZEOQOONEAFIELD,CA,96136
7087,KOOHOEQYE,VILLAG,WOWCOEMOWBURG,AS,32874
4935,TYESHONI,CVS,CEACREKEIGHBOROUGH,NM,40102
2620,JOHEIXUOY,ML,WISMEEPEAFURT,AS,52113
8576,WOIFOQUL,GRVS,XOROUQEIFIELD,MS,17542
2512,NOWMUNAE,HT,XUOYRUOYZOUBURG,GU,61289
5703,PIGHQYCAY,TRFY,HENIEUDULFURT,OK,93288
3458,ZETZEURYOU,RTE,NEREYRERVILLE,NV,55196
5007,LOUJEOVAIGH,RTE,ZOUGHWYPETKIRK,NJ,71441
4383,DEWJURMRE,BLFS,FETSOAXOWBOROUGH,NC,66026
3590,VAINEWTEY,VALLY,VOURDYZUOYKIRK,MS,26458
4084,JOUGHMEWGUL,HBRS,LAESEYLYEFURT,RI,34731
8401,GEFREDEIGH,BAYOO,LYMULDYEBOROUGH,OR,11996
1262,VOWSUYZYU,CRST,TIEZUOYZOIBROUGH,NE,24961
1535,MYUWYOUVEU,BOULV,FOEWMEJEYBROUGH,KS,72037
8745,KEAUFAIRYOU,MISSN,NYUZYOUCUOYBURY,AP,19819
1442,GEHYUWEO,PLZA,XEAUZOOKREBURG,HI,55592
1262,NEODUYMOU,CRCL,LERNOVOBROUGH,AE,39592
4103,MUYJEIGHDOUGH,OPAS,POIGOUGHWYOUKIRK,NC,12549
6863,NAULERXEI,LOOPS,LAWNYEGEYVILLE,MD,17143
4587,QOYLOIDOEW,VILLG,CAIWINOEWVILLE,MO,49397
2710,MULPOIREU,LODG,DEIGHHOWQURFURT,CO,89665
9848,VIGHCOUXAI,MTWY,HERMEIGYOUFURT,AR,40827
3698,CHOKUYGUL,STRVNUE,SOALEAUTEUSTADT,NC,23819
1577,HYUVIGHSOEW,GATEWY,SAYLOCIBERG,FL,70623
5467,MYOUNEOMOUGH,FRRY,QEAUMETMUBURG,MN,53604
5208,XETSOURTY,MNT,SAECQIEUBURY,MS,23031
4365,KUOYVAIGHWAY,FRWAY,GEILEAUXIEWBURY,CT,85745
5865,SOUGHCAUWEE,VILLG,XURTYUWETFURT,HI,99247
7987,MEAUPOURGAU,SKWY,DRECIEULIEWFORD,AR,97529
8915,REISEINIEW,MTNS,SOWJUZOEBROUGH,ME,67281
4033,CAWZIEUXIE,DRV,NEIGHWOOVISFURT,OK,19254
8984,XEEZOADIEU,ISLNDS,CUYDOAFOUGHBROUGH,MI,92673
9422,HEANOUGHSOUR,STATN,SUOYMELUOYVILLE,AK,45985
3215,FARHIEUTUOY,TPKE,NAEVYEMEIFORD,NV,86564
5617,HOEWDIECEAU,HOLLOWS,WEUFEERAEFORTH,AE,57579
6682,LEAUHCE,TURNPK,ZUYQUKETFURT,MA,27439
9998,DARNIEWNEU,GLNS,FEIGHGYEZAYBURG,RI,89019
9765,WUYJAWCOE,MTWY,ROAZAIFAWBURG,CT,54583
1982,GOYFAEDAU,PLZA,GYOUKIEULIFORD,SC,94994
3047,QIGHFIEWDUE,CMN,GREMURSAIVILLE,AZ,58203
6314,XIEUSAEDEAU,HIGHWY,MUSUYWEABOROUGH,AK,38293
6086,XEILORCUY,AVN,LAUQEWDURBROUGH,AZ,96944
8939,VYRETHOEW,FREEWY,RESOIMEIGHBROUGH,AA,62964
6376,LUYPEAUC,DIV,JEOTOATSHIRE,ND,35148
3911,VIGHHOWKUOY,DRV,NYUZAITUEBROUGH,VT,43369
9507,XYPYEDEI,PRR,JAWPOITOIFIELD,WY,18515
5432,PHOFAIJOUGH,JCTNS,XUEGREZAUFORTH,CT,96412
2609,KOURVEUEROA,AV,VENREGUOYKIRK,CA,54114
9095,WUFETSUOY,GATEWY,MUEWAESOBROUGH,IA,14895
8090,DOUCEJOA,CRSNT,CHOMPAEVILLE,GA,88156
7901,JEUJEUSAY,MTWY,COURZAIKISBERG,AR,86923
5955,MURNIHAR,CRSNT,VIVEOPURFIELD,RI,68198
3165,PIEWQOURDRE,CRCL,XUYNEWCOEWSHIRE,WI,13075
3007,DEUEWOWSIGH,INLET,QOIQAIGHKEAUFURT,MN,18351
6475,DOASEIHRE,DRS,XAUFUESAWBOROUGH,VI,64383
7263,NGAUFE,JCTNS,LEONOATOOSTADT,IA,12146
1258,VYOULYUHIEW,SQRS,XOYWOOTOSHIRE,VT,58031
2028,GAWLEWNUE,FRRY,MEYKOPESHIRE,MP,53303
2660,VOORUYGAY,MOUNTIN,GYENIDOUGHSHIRE,NV,94046
2150,RIEWPEFUOY,TPKE,WEAVOQULFIELD,PR,97475
9515,PIEUNORNEAU,HARB,COURGEAVEESTADT,AS,11488
3602,JOUGHVYSER,FRT,FOKEEXEUFURT,MN,90283
5395,QEYDYDOY,TRAILS,TQUOYMEOVILLE,KY,40621
5138,DAURECEUE,STRVN,LYECIGHWEWFURT,MA,81162
8214,SUEJETZER,STRVN,WOOVURHOISTADT,WI,92545
7565,HOOTRECEU,ANNEX,WUYCUYNAUFURT,IN,72331
4471,NOINYOUPYU,CENT,CEUGYEZEABROUGH,MS,91460
4603,FAUCOYPUOY,MISSION,XUEHARCOOKIRK,AZ,38631
1029,NYEROEVAW,GARDN,NYOUQOWWEUEBURG,GA,47526
4766,TIEJIERUE,TRACKS,VUOYNOEWMAWVILLE,NY,97238
6368,KHOJOYSIEW,CIRC,NIENOCEABROUGH,AA,44550
7589,PEAMHOCEA,CRCL,ZOGHONURBOROUGH,MS,63757
1739,LUOYTAUKEY,AVEN,ZEMEIJOOBURY,AR,40249
5310,LAWZAIGHTAW,STN,XEESIJUYKIRK,ND,19893
4676,LOWLAYVOO,EXPW,GAESAEVARBROUGH,VA,64322
6113,TAUQEYDEIGH,CEN,MURCEACEYFURT,GA,14614
2521,NYOULUYDAE,AVNUE,JOREWZIEFORTH,AE,35818
8848,KIEUCOULYE,HOLWS,VIEWGUOYGOIFIELD,ID,11756
8382,HAIGHTRETEA,SHOAR,QEMIGHWEAFORD,UT,98681
2752,PEAPEUEQOUGH,CRSNT,PEETYOUCAEBROUGH,AZ,68295
2092,VYEMEIGHFIGH,VILL,JAYCYUCEWFURT,NJ,58936
5797,LEUEVIEUROUR,HARB,NOYVYEDEUFIELD,MT,15725
1224,NHOGEIGHPUR,CRCLE,HOIGEICURBURY,PA,55901
5726,DOAXURKAW,FRT,TEWLOUJIEBERG,IN,64872
1707,KAIWEUEVIEU,STRT,WIGHRORQARKIRK,HI,53108
1812,FEUEWAIGHGEW,CENT,SAWJULFOWVILLE,MS,63522
5970,LUCEIZEY,GDN,JAIFYCAESTADT,MI,72766
9975,FORGEAUSOR,MNTNS,VOOVOIFIESTADT,ME,38801
8320,LAUTUDEAU,EXPRESS,QEAUDEEQAIGHVILLE,AS,67303
7811,DUYMUOYQIE,HWAY,KETCYOURORBOROUGH,ND,89136
7870,ZAIGHRARVOU,WL,QOOVISXEAUBURY,CT,60142
3575,ZOEMAIGHNYE,CENT,MTERTYFURT,OH,20368
8114,JAEZAIKOUGH,TRNPK,FAYJEUEPUYFORTH,VA,14078
1687,HUYHOADEA,HOLWS,PYEVUECERBOROUGH,OH,96097
6018,XIEWXOILYOU,XRD,WARNAIGHNETFIELD,CO,40990
4151,HCOLHO,MISSN,CURLREROAFIELD,DC,27144
5620,NOOKREFE,PIKES,LEAUCIETERBURY,DC,76188
2020,FEAUGAUWAR,RNCHS,NUEFEIGHVAUBROUGH,AS,91793
6010,DEWDENOW,PSGE,JULXUYDUFORD,NE,11127
7251,XAWKIGHQAIGH,EXTN,SEAUWIGHCYUFORTH,WY,33480
8333,JORHOOPIEW,TURNPK,KUERIGAIGHBERG,NY,71681
8588,VOEWKYEMOUR,STRAVN,SORDOWQOEBURG,OR,76038
6666,TAWSOEWXUR,BYPA,REATICISKIRK,NH,39742
2546,XOXOUGHLIGH,VSTA,COYHOJEIFORTH,MT,93924
6654,ZIEHSEUE,ISLNDS,COAROEWWAEBURG,MT,45260
1013,FOEWJOEDEI,EXPW,MOURLORLYOUKIRK,MT,55456
4054,TORCETPUOY,PLZA,SEAFAIGHNARSHIRE,KY,32315
6071,RUEFOIWOEW,CRST,NOEPERKISBURG,NV,83829
9937,WAIGHJUYHU,RADIEL,MOYHOEMOUFIELD,ND,57635
8340,SILEUXU,PSGE,XARLREKOEBERG,DE,57046
8301,QIEUFEIJEA,LNDNG,ZEAMARKIBURG,UT,55670
7087,KEAHEAUXAR,GRVS,XAYJHOLAUSTADT,LA,45391
7648,JEOMOESUY,HEIGHTS,ZIDETROEWBURG,GU,27844
5621,FUYXEWGYU,HT,WETFOEWDOYFURT,WI,99322
3238,SYUVURGUE,HIGHWY,LOEWDIEHOUBERG,VI,49065
4677,POIHOUGHGOEW,CNTR,GORWAIGHHREBERG,WI,93842
4191,CTIEUHEI,GRDN,JOWDEAUXAEFIELD,TX,59810
2909,QOLOUGHWUY,SQS,KEIXAEDIEUBURY,MO,26256
7096,LYFEODE,RADIEL,TAIGHKARFHOFORD,MS,49708
1837,WORVEESOA,STATN,XAWCOUVOUGHSHIRE,NJ,90831
5814,PYUTAYFUE,BOUL,SEAUFUNAIGHSHIRE,IL,55393
3737,RIGHKOEMAW,STRAVN,HEUEDERNOURBURY,CO,80696
1240,XERCIEUWOW,EXPRESS,WURCOYWIEBERG,OK,98835
1626,XEYSIGHCEIGH,XRDS,NOURWEAUTFURT,PA,30255
7161,WEANETZEA,SHOARS,TETJOEJOOKIRK,PA,31393
8846,ZULVURDEA,EXPRESS,KYVOWDUEBOROUGH,TX,22560
5841,GIKAYDUR,MTIN,VURDISDUSTADT,NJ,39455
4729,ZOIZYWEIGH,GARDN,GESOUGHVOEFIELD,ND,13063
5135,FOYLEINAR,TUNNELS,KUOYREOCOBERG,HI,51668
9599,WOITAIROU,STS,GAUVUYVOIBERG,GA,62683
3395,REDORWIS,HBRS,JEEKOURVEAUKIRK,MD,88064
9580,CAWDOUGHZOUGH,CIRCL,DHOHOYJUEBROUGH,AS,58927
2138,COEGOWKIGH,CRST,DULHEUVURBURY,KS,59108
9803,XIEWWOOVIGH,FRWAY,XEETOETOURSHIRE,MT,41146
3555,NEUMYUVYOU,HIWY,DETLAEXEOBOROUGH,VT,17060
3446,FARJUEXOA,CENTRE,KAURAIGHCAIGHBURG,CT,60628
3624,GAURWOU,MTWY,SOWRUOYQUOYBOROUGH,IL,79939
5974,GEAFOURHIEW,GRDNS,PIEUKUOYHEAUFORD,FL,31848
5405,XULRAIDI,RANCHES,ZOOZAWVOOVILLE,VA,29868
4863,COUGHLOIHO,CVS,VOATAESEUBERG,NH,90359
8595,PEEMD,FREEWY,CUOYWOYRULKIRK,MP,75968
9975,QYEHERO,TRKS,LIDEMURBURG,KS,15310
5780,ZEEDIEWGEAU,PLACE,COULOIFETFURT,AE,52405
4575,NHOZYOUPOE,EXP,MOALEIZEEBROUGH,PA,82747
2137,ZHOHAYMOUGH,BG,TAIGHROAZUBROUGH,GA,81548
5152,ROEXAIGHCU,DRS,GUYREWNEEBURG,NM,30798
2631,QISVIEUDOW,OVL,QOISIEUFOEWSTADT,VT,26328
1365,FIEUMUYQIS,BG,WETFETZOWFIELD,CO,43403
9587,PARZUOYQYOU,GLNS,HOEWWUPOUBERG,NM,69918
6627,SEYWEIGHVOU,CENTRE,KRELETCUSTADT,LA,46769
4762,VOEWZOEWJEW,HIWY,MEWJOANAYBURG,AR,45259
1675,ZEUEZYEMEI,CNTER,SAYQAYXOEBURG,NY,97390
2751,TEITORFOE,DVD,PEAUDOAZEIFORTH,TN,35611
6727,QOYXISZUE,MOUNTIN,HOUGHXORKEAUBERG,NV,90680
1163,LOUGHDIEUDIE,CENTRE,VERWORGAYBOROUGH,ME,67581
1926,HULKEUKY,LDGE,DOURWIMAIGHSHIRE,VA,16264
3584,CULWIGHLO,EXTENSIONS,DINHOGOURBOROUGH,MI,30348
3878,SEUEGYOUGYOU,CMNS,XEORIGHKYUFORTH,NE,95440
6581,TYUTYUXIE,CNYN,WAYXOUGHLIGHFURT,NE,73501
8671,HOURJITEAU,PKWAY,ZEYLEAUZETFORD,TN,50705
8694,GYTAYWOY,LGTS,HEEXEAUHIBROUGH,VI,50880
2274,QOWKAWGOUR,VIST,LAYFEREBERG,TX,66452
1865,RUYVEYREU,MISSION,ZAIGHWOECOFORD,WI,31486
5033,CREHEWPOA,PKY,LYOUHOYZEUFORD,NV,77825
8549,NIGHXETZEIGH,VILLIAGE,WYEFEIKUSTADT,WY,34829
8545,PORLARPYU,FRWY,CIGHFOYTEIGHBOROUGH,MP,40974
2233,LEAROEFOEW,CMP,GEAHOSARBURY,MA,28349
7441,ZEAUDORXER,WL,XEUPAEWIGHBURY,NC,16525
7472,PEUENEEDEI,FRDS,CHOZOEWREIBOROUGH,NH,36998
8619,JEYDISMET,DRS,GUYPIGHDAIGHSTADT,GA,22519
5069,KIFIQAE,TPKE,LYEDOULEUKIRK,KY,79320
4075,LAIGHRIGHVOU,DIV,POWCEEWOIBERG,VI,56195
9480,KAIGHVHOTOY,SPNG,QAWCIGHCYFORTH,NV,30131
5930,SEAUDAIGUE,GRNS,KYEQEYTORFORD,NJ,28739
2682,GRETIEXEAU,MTNS,MZEUEVEVILLE,WV,48126
2931,COOROWNER,VSTA,WAEGEWSOOBERG,OR,75524
5628,SAIFAEROUR,AVN,XIERIEWTBURG,DE,38637
9191,REEFOELOE,TRK,DAWCREGULSHIRE,NC,73543
2145,GYSIEQIGH,GRVS,VOURFULVIEBOROUGH,SC,17220
2552,VEUEXETGIGH,VILLAG,XURVOUGHJAUFURT,LA,44237
6309,MUYPEYCEE,TRWY,ZEIGHPEIGEAFORD,NJ,14803
2224,QARGEOGET,UNS,SEWQETGOEBERG,AR,68730
7021,LIEWDYLUE,EXPW,FYERAUKOEWFIELD,FL,64948
3446,GOWGORHOO,PLACE,DUXAWHIFURT,CO,98595
9184,NIZISZOEW,STRAVEN,VUEMIHEWVILLE,OH,24240
3740,DISMHOGET,EXTN,WAUFURZYEFURT,MD,64297
3290,KPYWAI,TRACES,TEOFEAZAYFORD,WA,69557
3744,ZUOYMEIGHTEI,UNS,LEOXIECISFURT,KY,83154
9678,ZIEDYRYE,TRACES,KOESOITEUEBOROUGH,ND,40621
4123,JEALUOYGIEU,BYPS,LETMORQEOSTADT,WV,67495
4036,RREKOAKAU,TRKS,NARLHOMOURFORD,ME,26423
5981,DECAEHIGH,AVN,XOWTOURFIEUSHIRE,IN,72005
4217,RAWWIWE,CEN,NUEJQREFORTH,AZ,32058
4859,XYOUMOUXEUE,CMN,PEAXURSAEFORTH,AZ,43343
4608,SEOZOWHAW,GATEWY,CYOUPEEFETBURY,RI,96475
6318,MARJOAQAU,CEN,ZULTIRISBURY,ME,24316
5488,KEWQOUGHLOW,MTIN,JULERZEYBURG,NV,15202
8442,DOYDYUZOUGH,ORCHRD,REUEPREWIEBERG,NV,78363
5094,PEOQAWSUE,LDGE,KAECOYCYESHIRE,KY,79504
5507,MEEVAYCYE,JCTION,DOUWARTAEVILLE,MO,43625
8913,SOODEUEROW,AVEN,QIGHHAYGUEFURT,WA,32918
8961,QUYQORGRE,PATHS,GAWZUFEOKIRK,IL,48814
9168,JUKAUKEO,VDCT,ZEOJREJEUEFIELD,NH,43985
9346,SURFURZYU,GRVS,VEITEAUPARFORTH,PA,96822
6329,REOWEOFIS,CYN,PEAFOUGHNEIBERG,NY,47050
6751,PETGUJUE,AVEN,WEWPISXSHIRE,WV,19397
1600,KAINOAFEY,EXPW,REIGHZISRAYBROUGH,NY,89877
6000,RETLOEKAY,HWAY,CISJMOUGHBOROUGH,MA,80093
6483,HOJOYCIS,CMN,GOURDOITEAUKIRK,AE,75784
8283,ZYOUDULXOU,MLS,POURQEATORFIELD,AS,69807
9170,RIEWIEKOY,BYPAS,PIEWRYXEAUFURT,OR,56685
5068,DEAUMEYLOUR,CIRC,ZOAXOYXOEFIELD,ID,74323
3330,KYWEZHO,BOUL,PYOUXEELEAUBROUGH,DE,93750
1910,WETXOOLEE,BG,NOASEIGHFIGHSHIRE,NY,70091
5157,PULMOUGHDAU,MTIN,JRECSUYBOROUGH,HI,43051
1902,NISSUYHIS,SPNG,FOUGHJEIDRESHIRE,WA,73201
1541,DEICURVAW,GTWAY,ZORFEIGHKEIVILLE,NE,99103
2890,XEAUQOATIEW,VILLAG,VEIRYOUDEAUBURY,SC,19344
9968,DURFOOSUE,BYPS,NEWRILARBURY,MD,78023
1606,FAIDAELET,BYU,ZARPEUEDYUVILLE,KS,28090
3528,KETVEITU,CIRS,RISZUEGAWFURT,MS,86152
9664,ZOXERLEY,HWAY,PERTEAXEAUBROUGH,NJ,16952
8227,DOETOYKU,VALLY,HEWPOWHETFORTH,IA,35605
5806,TUPIEWQYE,DIV,ZAIGHVAYNOEFIELD,AE,46625
5589,LOAPYOUZOE,BLUF,FOEHAIGHJURKIRK,OK,77974
7845,GEWROTEU,TRLS,GEYGAIRYFIELD,NM,12004
4463,VEIPOURWEAU,CRST,HYEKAIWOBURG,AR,95797
5585,KOUGHPHODEUE,ALLY,CAWVYUWEESHIRE,NH,32127
7223,VUYNISSOY,CNTR,CISNYWYOUBURY,MN,71923
7141,MISNAENEY,STRVN,TIGHMEOGREFURT,KS,56992
4487,MUOYFHOTIEW,MOUNTIN,TIEURORTOSTADT,AE,42616
2634,TOWQEWXEAU,KNOL,MOWWARWREFIELD,ME,65162
7191,GYUHOEWQIE,SQR,MEIGHROURXYKIRK,NH,24578
8469,DUEWOUGHPOO,ALLY,JULNOEWGUSTADT,UT,82623
5365,VAIGHJYOUKOUGH,OVL,NYESUERISBROUGH,TN,57590
3335,VAUKETRYOU,CRCLE,CEAUGARHOUBOROUGH,NE,86745
7113,KUYVEOZYOU,LGTS,WEWCAWPORSHIRE,VT,14655
9636,XAWFULLOO,JCTN,KIEHAEHEIFIELD,NH,73629
5560,XAYCIDUL,ANNEX,DETREUEWOFURT,HI,64586
2151,WAIQYUHO,CTRS,PEAMIRORBURG,MO,22863
8708,XOWJIEUKOUR,VIST,DETQUOYNOEVILLE,OH,95522
5803,MIEWERKAI,ANNEX,LAUWOUWOWFURT,NY,69128
5259,ZEYZOUGHTEIGH,RIVR,KOUGHNEINEYFORD,DE,98638
4966,TYUCOUGHPYE,PRR,DYOUZEPEEBURY,WY,22603
3231,LEEDUYVYOU,BOTTM,HEOTOWREOFURT,WA,59151
6782,VUYJETCER,PATHS,METXEOMOYFORTH,IN,23576
9386,MUETAWTUE,MTWY,NOAPEUEQSTADT,UT,89482
3585,TEWSETPHO,BOT,DHOMAUMAWSTADT,OK,57284
1836,XUYWELYE,HT,LEOVOXOOSHIRE,SD,77517
4980,CEIGHRYUTE,WL,TOURDYUQETBERG,DE,72817
8779,PIEUREOZOO,HRBOR,DOAGIEWQOOBERG,NM,31658
6158,XEHUENAIGH,GATWAY,DOEWQAWPEOBOROUGH,NJ,46147
6322,DAINOKOUGH,LODG,JOWTOWFSHIRE,WA,51680
9031,TOURMERJEI,TRAILS,NOEWFITEWSTADT,TN,89826
8393,LOWKIGHROE,CRCLE,JEWSYLEUEFORD,MD,49483
5650,XIEWNOURNAW,SKWY,PNOUGHCIESHIRE,SC,19318
8815,LEIGHTEOJO,MISSION,WOEDEINAWBURG,MD,95776
8940,KAYZUECEW,STRAVN,VGIGHLIGHVILLE,MP,60741
7223,WUJURTRE,VILLIAGE,TYOUMYSEYBOROUGH,CA,14004
7261,RUPIEWHIEW,CMNS,SEEDIEJOYVILLE,HI,55725
5454,WISVYXO,SKWY,GISZURKUYFORD,MA,42558
1180,VAIVHOMEE,VLLY,SULKUJIBURG,SC,13007
5422,PAIROWNOEW,BYPS,WIEWVYUNEESTADT,MA,67661
4646,ZIZARHAIGH,SPRNGS,SAUPOUGHGIEUFIELD,PR,63190
2623,DOEQEUENAE,CIRS,DUJRENULBURG,ME,59349
2998,KIEWDOEWRIEU,GRVS,SOEZEEDORBURY,NJ,15568
4885,RARHEUEK,VALLY,XREMUMRESTADT,MP,19794
5882,KOAVYEMEY,MNT,XEHAYCEYSHIRE,MN,62444
8429,MYOUREULUE,TUNLS,DEOHYOUHEWFURT,FL,82858
2747,KGIEVAU,EXPRESS,PETCOURQYFORTH,WV,36368
5232,TAUKIKEIGH,CENT,NIROEWRIEUSHIRE,WI,90019
3785,MAUROYVEW,SQR,JOURKEIGHXYBOROUGH,NE,74642
9025,VAYDISREY,CRCLE,ZAINIGHLEIGHVILLE,AA,75244
5576,QEIGHDAIJOUR,RDGE,JYOULEUTEABROUGH,OR,62756
4812,SOYZUOYTRE,ISLND,ZIELETKOEWBURY,MP,90923
3287,SUSEIGHLOO,AVN,CARFULQUBOROUGH,WY,52258
6826,PEMUEFOI,CRCL,NEIJYOUGURBROUGH,CO,25811
6574,KARCAWXAW,VILLG,JAUPOYMIFORD,RI,78400
2660,LAEPDUR,TRNPK,NOOJYEWAEFORD,IL,48058
3059,RUGNOU,BAYOO,NETEAFYFURT,GA,95742
4975,CHOVEIGHJOR,CEN,HIGHKOYREAFURT,CO,12830
6528,QOWXOISAU,BRDGE,KULTEIGHKAIBURY,AP,26088
4852,MEWGHUL,PLZA,MYOUGAIQIEKIRK,ME,66268
5618,LEUEFIEUCEI,SHOAR,GIGHRINIEKIRK,MD,20529
8931,LOUGHCAYVEIGH,MNT,FUOYVAISEAUBERG,AE,29635
9301,HEEMEEDOW,TRACES,LEUQETRUBURY,GA,37655
3598,PEYDAIGHQOR,MNT,VOWCYLOURBURY,WY,15018
2171,DEEDEIGHLYU,FREEWY,POOZAWFIGHFORTH,ME,61837
7530,TEINEUKEW,MNTN,PGYERYEBOROUGH,NY,53012
9409,QURKUOYMET,TUNLS,SEICEOQEIGHBERG,MA,87779
8657,GOURSUFHO,HIGHWY,LEULOIDOOFIELD,OR,76951
5776,VOEWMIDUY,PKWYS,TUOYDEAUSEUVILLE,GU,38039
6152,GEIVHODEU,OVL,JOUWETJYBURY,NM,60723
8610,TEUEHULMAI,HLLW,GOOTERSIEWBURG,OH,16929
8966,MUEPERDOA,JCTN,HEUWREMYSHIRE,AA,42561
6763,CYOUHEKUE,GRNS,FREZEAUWOWBURG,NC,45220
1748,LEIGHFEICOY,DVD,VRETIETAIGHBROUGH,MI,36702
1005,VEYHULHEUE,OVL,XEEHAWNAIGHBERG,KY,18141
7137,MELAWS,STS,VIEUZOURKAWBOROUGH,GA,39346
2537,RYUVAIGHN,BYPS,NYENOWWAUBOROUGH,MD,67905
3065,WEIGUYWU,BOULV,HREKULJUOYVILLE,PA,62972
1780,DZISWHO,FRWY,FIGOURXAIFIELD,ID,53272
7081,VERWAEKEY,CMP,TIEWNUYVYEFORD,MD,59018
2218,XULSEIGHJUE,XRD,PUEXIEWMISBURG,MS,49698
4771,JIENYEDOA,MEDOWS,KOYHOWSOBERG,WV,56896
7293,QODOWTEIGH,INLET,NOYSAIGHFOISHIRE,TN,15417
5187,RYOUGREMEE,CNYN,XIEUHYUMIBURG,GA,31579
1083,DARREAUZ,ALLY,WEEFEWXEABERG,VT,83545
8214,LEAUWAYXIS,STATN,HEUECUOYJEOBROUGH,SC,80261
5292,TEAUFISPAE,HARB,FEAVISLIEUSHIRE,NY,71734
5838,NEUDOURKIEW,TUNLS,JAIGHDEUDIBROUGH,AR,65732
1509,SUESEOWUY,LGTS,HEORMKIRK,KY,21518
6841,KOURHEWNEUE,TRFY,NAIGHJUYRETBROUGH,HI,80312
2274,RYUXPEY,MNT,DOUGHNEWMOEFIELD,VI,71629
8017,MORLEIQOE,MTNS,SISGUOYSOABOROUGH,MO,50406
4192,KELIEGAE,GATEWY,CIDIGHFAIGHBURG,PA,88524
3087,GUOYHERKIE,RANCHES,SRELUOYWORVILLE,VA,97009
5150,VYOUZOUGHRAE,VLLY,QULPIROFIELD,VA,66638
3463,XIEJORWER,MEDOWS,COUZIGHPIFURT,NC,54846
8997,HEIMOURFU,GRDN,WOEXYUCIBURG,MP,50195
5749,LEUEFAYKUY,KNOL,WAEGIEPYUBOROUGH,UT,91739
7987,XURTTOA,HRBOR,CEUEDEYTAWBURY,MS,97174
1873,HYESISTE,RTE,WOWQUYTULVILLE,NE,13307
2965,KEAFAECYU,AVN,GYOUNUNYUBURY,MN,30172
5014,NOURVEEVEUE,VILLIAGE,DURDEOLIEBOROUGH,AP,73432
4575,POAMEIGHGE,CIRS,FEYSYEKOOSTADT,TN,16701
9274,NEAUDAIKO,CENTR,READYEPOUFIELD,GA,81126
6022,SUWOUGHK,STRAVN,ZORSYOUDHOVILLE,NH,28159
4573,FERTEAXER,HARBR,WEORIERORSHIRE,WI,75755
5998,QEEJIEWRUR,DRV,XOWZEIGHTERFORTH,GU,15513
7915,VEUEZIEUGAW,GLNS,MOAVOYCREBURY,SC,66176
4733,REAUWYOUCOUGH,VILLAG,QZORJIEFIELD,OH,98319
3890,GCEAUNEA,PKY,GEAULEWPAUBERG,ND,36893
1599,VUJUOYTOUGH,STN,NAWNAUTOURSHIRE,PR,53366
8985,GIGHKEWMOW,DRS,HYOUFEOTEUESTADT,MS,94398
9587,NULVERHAR,AVNUE,XYRHOZEUEBURG,CT,40303
9006,FOEWDOOMEU,CRCL,METFEEJOOBERG,KS,37339
6103,POYWYGU,PRR,SOEZUOYMIFORTH,UT,76716
5670,ZAUKUSUL,MOUNTIN,ROAGEFEEBOROUGH,SC,42172
5176,GOWGETPIEW,MLS,KEEVEOWYEFURT,AR,39703
7764,DEIMIEWLEO,HT,NOEZOWHOASTADT,SC,17748
3602,WOIQAYHIE,CRST,WOYDEEHIFORTH,DC,84304
8339,HAIJEAUQEE,GTWAY,QUYSAIGHMUBROUGH,NE,35080
9772,REILIESAW,GRDEN,LOURPOUGHNSTADT,PA,65671
8755,RERDHODY,CENTRE,QOEDOOJETBROUGH,IN,84825
7666,LEICAYSUE,SQR,XYGETKEUFURT,NY,16275
8743,HIGHGAUQAI,PLZA,WUQIEWLIGHSTADT,TX,94962
9213,JEUERIEUGUE,CENTR,KEACEIGHXEEFIELD,TX,56855
3203,WEJEURAY,INLET,QAYFYOUWOISHIRE,AA,70593
5666,HIEULERJEY,TURNPK,LEUEJEUFOAFIELD,GA,84507
1698,XETCOLHO,BLFS,ZEZOEWFAUBURY,NC,60166
5745,KUERIEWX,HEIGHTS,XORREYPEFORTH,ND,60425
4870,HEIJOEWMUOY,MSN,JETVYEREBROUGH,NE,94196
7185,TUOYNAELER,GRNS,JOEWGOOPIEWVILLE,KS,79934
8791,POULOYLUY,HWAY,FORTUOYMURFURT,PR,57094
3683,QETMOTOE,EXPR,GEWRAYDHOFORD,PA,20611
6976,TUECISMIE,MNTAIN,LEIGHTPEOVILLE,NC,53612
4497,MAEPEOFOUGH,ALLY,VYQARFOURFORD,MO,20764
6867,JERFOYHAE,MTNS,LAYNOWHOEWSTADT,GU,99813
1747,JAETOURVHO,RIVR,XOEWGOUNULVILLE,NE,51247
5264,PAYSISROR,STR,CREXOEWNORFORD,NJ,63236
1408,DEYMEEHAY,STATN,WAUFOUGHPUEBOROUGH,UT,81190
9680,FOIMHO,VDCT,ZUEWEIGHGHOFORD,RI,24694
8478,TAUCYJE,GARDN,VOXIEUMOSTADT,NM,79339
8076,ZIEUVIEWJOU,TRKS,WYOUVYOUJOUFORD,LA,26459
6681,WOURZODIEU,STN,COODREXEUEVILLE,KY,26322
8161,NERMISXUY,ISLNDS,TOYQAIGERBROUGH,KY,96751
1849,CIEJRETEO,PARKWY,TOARAUGAIKIRK,AK,73396
7260,TOILOEROW,BOTTM,MARSISJEOBURG,GU,87831
9691,QEWJARKUR,DRIV,JHOVIEWLEWFURT,NV,92163
6614,KEIGHDEYHYU,STN,XYUKEUETOFURT,ID,47501
2972,TAWLAULOY,SPRNG,XURSOURWEIBURY,RI,16795
3695,GEAUPOWVOW,MISSION,NEONEUVOUGHFORTH,MS,36551
7106,ZREZOUGHXEI,VST,NEUSEWGAWBERG,AA,58405
1238,PEAUDYEREW,WY,WIETEIQEUBROUGH,NH,38016
8786,DOEWCEKEU,PIKES,XOWREPIEUSHIRE,MD,63273
3691,GYUVIRAI,EXPRESS,WOOPEIGHTEIGHFIELD,DC,62253
8893,PEOQIREU,WY,FEMAIGHGAWSHIRE,TX,30075
4852,CUOYCEYPAW,HT,RAENISVAWSHIRE,IL,98225
8501,FIROUGHQAW,DRS,PAIGHDOYCAIGHFORD,IL,74586
6050,WORNEUENRE,ORCHRD,MOURMAIVIEBURG,NH,30465
8745,COAMAIKOY,ANNEX,NEFULREASTADT,AP,89172
8927,JEIGHDARQAI,LGTS,JAEMUMORFORTH,VI,30248
5278,CHOFEAROUR,PRR,KIGHSEOXEOBOROUGH,MP,49242
6551,VYOUSOOSEUE,CRSENT,COURMURXAIGHBOROUGH,GA,13349
1370,LEHEYRUR,VLLY,NUYWULRRESTADT,UT,14491
6354,ZIEUPEYGYE,PKWAY,FISJEAUZOOBOROUGH,IL,18134
5109,LOOWOAHOR,CNTR,QUFYURORBURY,IA,83986
6724,HOETIEWKEU,CRSSNG,VCEOQAWFORD,SD,22544
2211,KEESEQHO,FRGS,JILYEGIEWKIRK,NJ,69341
2055,DEYDYPAE,ALLY,MUNOYZOYKIRK,HI,26910
6550,QIEUTISSEW,FRT,COYVURZYUVILLE,VI,18777
9627,KYUZHOPUL,PKWYS,MORMAIFOOBROUGH,AA,65738
8232,GETUOYPO,BG,PIGHVYELULBROUGH,ME,32675
5956,RIEUKOOCUL,TRAILS,PUYWETPREBROUGH,ID,89403
9376,MEIGHHAYPEI,HBRS,RFOYLYUBOROUGH,SC,42826
5803,LIEWVIEUDE,PKY,ZREYCETVILLE,NH,14797
3955,KUKYOUTET,HLLW,CONEUERIVILLE,WY,82901
7687,LULCOYZYU,SPNG,WOIMURWYFORTH,CA,92942
5127,CEYLOEFOUGH,BLFS,ZEAUZEEDIBURG,CT,66491
3029,XEIGHMISMO,FRRY,MIGAIGHREFIELD,MP,68070
4864,RXREWIEU,AVENU,QREKAIFOUGHFIELD,AA,12236
5167,JYUXUOYCEI,STREME,KJAULOEWBROUGH,MI,68172
8239,COESOWAIGH,BAYOO,VOWGEOTEOKIRK,KS,86532
4266,QEIGHJUYRAU,SQR,SISFETVHOFURT,AE,73796
5839,WEYKOIPOA,STRAV,ZEOPOXEAUBROUGH,NE,19086
8767,MUEDAWXUOY,STRT,ZYCAWXOUGHFIELD,OH,41063
2462,CUXAULOE,SPRNG,LEUEDURZOUFORD,KS,66074
6082,ZEIGHTERM,CURV,QURSAUJOUGHVILLE,GA,68387
4873,HODUCUR,LOOPS,XOWPUYDAUSHIRE,WI,79991
9740,XAUSAIMYOU,VILLG,TEAUQOCORFORTH,MI,77494
4979,XETSEAUJOY,SQS,COURTEIGHFEISTADT,UT,85882
3866,FAELOAZI,MNT,NEAUMOUGHMOYBURY,AE,71681
6557,XEEWUEJO,HBRS,TAYDURUEBURG,ME,79721
9186,NARJETREIGH,UPAS,MULSYEFEABROUGH,TN,54014
2806,PULDYJRE,VIST,RYUWEIGHRISBOROUGH,VA,47166
9533,GEUVYJOE,HARBR,WERDYOUNAIGHSHIRE,AZ,20152
9386,HIEWDEOPEI,LODG,TYOUTORFUOYKIRK,OK,87743
1675,GEYVETSOY,PKWAY,ZERKHOPOFORD,AR,69413
4207,TIEWWIEWPAY,CRST,NRECIEUXIEUBROUGH,AE,34955
2342,POIXIEUSIGH,CANYN,CULNOOLUYVILLE,MI,90611
8731,DURLOURNO,ISLNDS,WEEWOEWRHOVILLE,CT,43884
2220,HEZYX,TUNLS,DAEQOYJIEUBURG,GA,67954
4398,PEIREYGHO,MISSION,XORLIEWREABURG,MT,42243
2154,KOWSAWRIS,BLUF,VOOKUFUOYFORTH,DC,19447
4525,JYUWIEZ,XRDS,RORLOEWCOUFIELD,NV,56534
2980,JOWNORHEIGH,WL,XULZAWMEWFURT,MS,27452
7490,XAYZOWKUR,LODG,WURJEQYUBOROUGH,CT,53421
4673,VOOFOOFAY,MISSION,RUOYGOAXUBERG,UT,78219
2297,HIEWFEIGHNUL,XRD,VIEWKOWTYFORD,AZ,17083
7660,FIGHCHOHAI,STATN,HOURNEUFIEUFIELD,MI,91724
8678,DOEVOUGHRYE,FRWAY,REAQUYGEABROUGH,NE,77989
5539,CEXOURDEI,BAYOO,SUCOUGHNAYBOROUGH,GA,62100
1822,VOUGHMUOYJOEW,TUNNL,NORVIEWJIEBOROUGH,AR,82800
3375,MOUXUOYKEUE,BLUF,CUEXEWPUOYFORTH,WA,80415
2260,FRETORCUL,SPRNG,WAUXOUJHOFORTH,MP,47809
1814,DOWGAWPAU,SHOAR,JEYLIEUFUYFORTH,GU,17904
8577,TAEDAYTEUE,GRDN,KAIGHKERFIEVILLE,AR,11609
8456,KOYHAIGHTEIGH,CMN,PYEHOUGHJERBURG,CT,84465
8024,GIEWKOIWIS,BGS,KYOUHIEPAYFORD,NC,67703
7678,MYOUNAIMET,ML,VEENERTEIGHFORD,IA,84458
3418,COIFEAUXER,TRACKS,REWQEIXIEWVILLE,VT,99725
9533,MYXARQUL,AVN,TIEWDIEUTAWFURT,VI,18073
3858,SUQUEVYE,CVS,TIJUYTYEFORD,VT,13737
2383,ZISGISRAW,GRNS,TEEROEWPAUVILLE,MT,40134
5392,HEUECYEPRE,SQU,LULCOURQIBERG,NV,17028
5972,FWEOZAR,VILLIAGE,FYOUDEEDEVILLE,WY,43902
4356,TULFOOCU,HEIGHTS,WERFEEPOEWFIELD,FL,22252
7884,WOEQEUFYU,TUNLS,FISKIETIEUFIELD,MD,72514
6181,VOEKAIGHXOUGH,SQR,KLEIGHKERFURT,OK,55313
1758,WEOQEAUJOI,TUNNELS,FEUCOWHAIBURG,WV,31103
6254,RAUWOIWE,CAUSWA,JIFEAJIGHBOROUGH,MN,48311
1217,REYHHORUE,ALLY,ZEWFISLEIGHBURY,OR,43660
7468,QIEZARRU,MTIN,GARQYEFAYBROUGH,MD,94720
6562,GEEMEEPOEW,FORG,MULXHOUGHFORD,ME,11551
3122,NEYMYOUDIEU,VILLG,RISZYEKFORD,NC,54377
1420,GOARYOUSEA,LOOPS,KEOMOEKUYKIRK,AE,90358
8986,HECOULET,HEIGHTS,GUFYUSEKIRK,PR,30217
5525,FARWEKUY,CVS,SAWJAIGHMAWVILLE,MA,64095
7031,ZISLUECAR,EXTNSN,VOUGHJILISBROUGH,AA,82949
3690,DAIXYVOR,FRWAY,NYEXOIGAEBOROUGH,IN,40878
8005,HIEWSEIGHHAU,VILLAG,JREWISCUEFORTH,AK,65799
6271,XONAYSUR,CRSNT,JOHETNULBROUGH,KY,42650
3723,CEAUDOYLOUGH,FRWY,JUDOAXOYFORTH,OH,45936
9045,GAWHEOTAI,TURNPK,XEIROUGHJYOUVILLE,NC,74709
7636,SEUNEUNIEW,MEDOWS,VUSOUGOWBURG,HI,53916
2472,FUEXOSEA,ISLND,LYWIEWVAWFORD,NV,72898
8460,SEIGHKOIFEO,CNYN,MTETGAUFIELD,MS,65400
3126,ZOAKREPEY,CEN,WUYPEAVYESTADT,AE,53343
4731,JIDOILOEW,HEIGHTS,QYUROEWVEUEBROUGH,AE,15987
7010,MUOYRREME,ISLNDS,TAWQOENOURBROUGH,KS,66575
4773,PAUHAWMUE,RVR,QVUOYZEKIRK,KY,76970
4890,JORLEAMY,FRWAY,WERETCOASTADT,FL,63714
6721,GIEUKERNI,PNE,SAIGHJYOULEAFORTH,AR,57195
1082,TOGEUEH,TUNNELS,LEZAYZORBERG,PA,60506
5290,KOUGHNEIQOEW,PLACE,JYFUMOIFORTH,RI,73800
1520,RUXOANEO,GRDNS,RILYUSIEUSHIRE,IN,54267
2275,MURSEYPUE,PLACE,WOETAUPEOBURY,SC,43461
1134,GUOYJOENIEU,JCTN,KAYFIEWPREFORD,WV,13914
9243,HIEHAUCET,VIST,HYOUSEYHETFURT,WA,18338
6639,NAINYOUKEIGH,VILLIAGE,REOWEITARFIELD,TN,94022
8587,XEARAUKIEW,TUNNELS,CEIGHWIEUVYVILLE,TX,56529
3815,VIEUNYOUXOA,DRV,SEEJIEUFOEWSTADT,WV,64336
7148,NOEHAYLAU,XRD,LYLYUHUBURG,MA,24177
5177,DORSIEUTEY,HIGHWY,VUHISCOOVILLE,MS,93895
3729,DOAHECHO,STRAVN,PUEJEYNUBURY,DC,98937
9491,LAWMOUSUL,CIRCL,VUHYOUHOOBURG,OH,53236
2168,WAIZYVYU,STR,VHOXEUNURFORD,DE,26874
5124,CHOVHOWOE,VDCT,MOURNOAFOBURG,PA,16250
6699,SEUEXULHO,MOUNTIN,GOYSOEWROABURY,NH,76829
2418,HUYPZIEW,VIST,GOUGHKAIGHXIEFURT,ID,20867
1855,ROEGARXO,FRRY,RIGHPRESULFORTH,MP,94341
2283,WERTISROU,EXTNSN,FISJEWMBROUGH,SD,70762
6865,QOUDOUGHXIS,BG,PORHEWMEWSHIRE,AA,86498
5718,ROWSOUGHSRE,ML,JORSUNEEBERG,AE,52170
9710,RETGUOYJUR,SPNGS,HAWKEJOURBURG,AZ,36646
1795,VURREIGHJET,XRD,HIEUQHOKEAUVILLE,OH,21653
7757,WOEWKAIGHDER,SHOAR,WAUPYWIEUBERG,MP,32927
2027,CAEMONOEW,GTWAY,ZHOGHOSUBURY,VI,47280
2860,VUYMIEWNAU,XRDS,XUOYFEUKERBOROUGH,PR,49590
8675,DOISAYPOO,STRAVEN,DIGERPIGHBURG,NV,77457
6172,CEYWUEPOO,HARB,WEQUYTIEWBOROUGH,MO,43411
7458,LAEQOEWKIEW,DRV,TEYVHIEWKIRK,NC,68650
4997,TAEQETLEI,PKWYS,JEUEROOKUSHIRE,CT,93707
7441,GEYMAIXAR,CRSENT,WIGHGEGORBERG,ME,94402
4804,FYEMOUGHPEI,HRBOR,CYUMXEUSHIRE,NJ,43743
7180,HEUXERNEAU,INLET,DAECAIVULVILLE,IL,72377
2492,VAINHODEA,TRACKS,JEYRIEWVOEBROUGH,KS,52744
7695,ZETPISDAR,MISSION,PAEJAIPIBOROUGH,NJ,29529
6854,FEEQEIPOI,PLACE,GOURPEIKYUSTADT,GA,86024
8904,LEEROOSIGH,CMNS,LAIGHKEYJULSTADT,MD,31158
7211,XAUGYOUKER,BRNCH,CIGHWYZUEKIRK,WA,24295
7829,KIEWNAUKIS,GRNS,SYENIENEFIELD,CA,33723
6340,FEAUFUOYSOE,TRNPK,HROURQFIELD,GU,71392
3067,RUOYFOENEA,CIRS,LARJEUGEAFORD,CA,88428
8797,FULNOZUL,JCTNS,LIGHJIGHTOWSHIRE,AS,11542
7760,FOEWDYOUSRE,XRD,DEEMEIGHXAIBERG,KY,71100
6018,MEUFIEUVHO,HOLLOWS,TOWJEYJYBROUGH,PA,20328
2823,HEUVOEFEA,GDN,FUEFYUQAIGHFORTH,ID,41131
9113,FYZOYMOI,STRAVEN,WAUJUKISSHIRE,GA,30781
2185,SARTEOVU,LODG,POVOYFEVILLE,MO,37686
3111,HOIJIEWTEI,TRWY,PEAZUEMURBROUGH,OK,37610
9294,SARNREKO,MNTNS,FAEFEAVERSHIRE,MD,23341
6294,QOURTAYVOU,ML,XEWNOIQULFORD,NH,66057
4590,LUOYGZAIGH,BYPAS,ZAYJOELAUSTADT,KY,63370
7804,ZURVIEWXUE,BRNCH,GARHOUGHJYUSTADT,AZ,21776
8572,JHOROYZOA,SHOAR,JEOVEYJEIBURG,MD,26245
6131,GERZORTOUR,CVS,FUOYGIEUSIGHFURT,MD,86819
4427,TUHHODOUGH,ISLES,WUOYMARNOABURG,DC,54961
7569,XEIGHJEOFEY,ANNX,LUEWIEKEIGHBOROUGH,PA,53117
3992,LEASYOUQY,GARDN,VULSEAWYEFORD,CO,80518
7046,LOURPIEWW,TRACKS,XORGHOKARBURG,NY,42746
7081,CETQERZEI,GATEWY,ZAUCIEKIGHSHIRE,AK,14194
5510,JEONAYTOY,FRRY,DEAFIEUMOFIELD,SC,22531
5230,GYOUPIXUR,AVNUE,MAEFEUEJAIGHVILLE,CO,54577
3195,JHOGOWZEE,HRBOR,RUELOUGHHOURSHIRE,MS,44101
4810,TIGHTAIGHVO,TRK,WOWPAYFYUBOROUGH,TN,25861
8532,LUEWAIMOEW,PRK,HEIGHZAIGHZIEKIRK,IA,53463
6747,QAWFIEQ,GRDN,COEWFAEZYUVILLE,NY,40867
6956,ZOEWXAIGHJYOU,GRNS,VEIKORGEUVILLE,WI,87088
6830,TEPEAWY,BOTTM,QOURGIELYEBOROUGH,NY,67160
3558,QEISYHOA,GRNS,JEYVULGETFURT,DC,53248
2932,JAITOWNAR,GRDNS,GEEQISQEUVILLE,WA,36158
7254,ROWFEWGEE,AVEN,KREQERDEFORD,NC,82727
8414,KOOCOIVEE,CMP,SYECOEQVILLE,SC,38192
1584,JOURPYFOW,BYU,SUOYQOQISSTADT,HI,83905
7978,QUOYFETVIEW,SPRNG,FIENELERFORD,PR,62055
4208,MREZIEUSEY,STN,FOEWJEOVOYBROUGH,UT,35944
5067,KEIMODOUGH,HIWAY,NEISOUGHHEUBURY,MT,81766
5168,NEUKUETET,RDGE,SYUGEEHULFORTH,MS,94671
5325,GOUGHTIEWZRE,TUNLS,QAUNETZEUBROUGH,IA,14301
9962,TEIGHKIEWRYE,DVD,KYPOUPEAUFURT,UT,62131
2827,VURFFAY,GRDNS,HEAPOYSYUSHIRE,IN,37685
2264,KOWTYEKOR,RVR,KURFOURQAIGHKIRK,WY,12257
2507,TOURLEUEMUL,CENTRE,FEOVURZEAUBURY,NJ,68293
9029,XOETAICI,GRDNS,QIEXOYTOOBURY,TN,13049
4081,FAYZINEUE,FRRY,SUEWEWGUEBURG,AP,66003
3720,NUFYOUZEUE,GTWAY,DCOEDAIGHBROUGH,DC,50284
7526,XUEJOUGOU,SQS,CYENOOHUOYFORTH,KS,96118
3498,GOORYUMYU,PIKES,WOWTORNAWBOROUGH,MS,45914
1573,ZYUREWDOR,ANNEX,PIEUPEYQAIBURG,WI,45014
1742,KAUJORDOEW,OVL,RIGHZAWKARSTADT,LA,30827
6187,DOAHEUEH,EXTNSN,LERPAIJURKIRK,WY,31383
7097,ZEOKEEMOEW,CNYN,SAEFAIXULBOROUGH,MS,28816
1563,PREZAIMUR,CIRCL,JIEMEIDKIRK,WI,63075
2227,PYUFEIDOUGH,STRAVEN,LAUPOAHERSHIRE,MD,11862
9233,ZUVEOMOI,UNS,KISXOOXIGHSHIRE,MN,51457
9876,HOWPEISEIGH,BG,FOOJOYLUFIELD,OK,87297
6206,DAWHYPEAU,HBRS,FURNEAVULFIELD,WY,33944
9884,HEWZEANYU,BGS,GIEWNUOYWIGHBERG,IA,87596
5002,LYUJISGO,CMN,GEUHUYLOYFORTH,NV,49806
7638,QISQIHIGH,BGS,NEAUSOUMOIFURT,NY,19761
2031,JIVARVEAU,PKWAY,PAEWOOSOOFURT,AR,33153
3996,FEUPOWJAIGH,STR,JEOGUYQIGHFORTH,SD,32709
6549,LILEIGHJOR,KNOL,PIZEILIGHBURG,AR,31207
9535,JORJHOXEW,CRSENT,FYUNOYRIEKIRK,NH,17503
6998,HESIEUZIEU,TUNLS,FHOZREDIBERG,PA,97583
3705,WAWJEYQOU,MSSN,GORZUTAISTADT,MA,82877
8705,QYUFAIGHSEA,MNTNS,PEOWEOXURSHIRE,AZ,69789
1608,VARPOIQAE,ISLNDS,JULMRERORFIELD,MP,77007
2961,XOURNYEXE,SPNG,TAIHIEWSOURFIELD,IL,48513
8686,FAIPOYWUE,BOUL,HISSAUKIEBURY,IA,96549
3408,SULKIGHXOI,VILL,ZAITRENAIGHSHIRE,HI,94298
4713,SEEKIEWPOUGH,MLS,KEUMIZULFURT,SD,32350
3162,TEOTORCOW,FRGS,POXYOUMYEBERG,AK,50425
8638,FAYWHOMOU,SQRS,LOETEAUQOUGHSHIRE,CO,54152
6627,LYETYESIS,STN,SERLENEIVILLE,NH,39936
3790,WOYKEIDOY,DRS,DOWLEYJEAFORTH,VT,97140
7154,REIGHKHODAI,UNS,TEAUJEINIGHFORD,GU,65197
5140,LOEXAWKIE,PLACE,FIEZARCUOYBROUGH,NH,20053
3861,PEUQEYMEIGH,ISLNDS,DIEWPHONISSTADT,PR,33332
5493,ZYUVYUXIEU,LDGE,NOOROOKAIBURY,MO,19565
8071,WOURPEIGHPEAU,RTE,MURNOOVOEWBURG,MA,63291
2423,HIESYOUFY,ML,LOURCIEJOSHIRE,PA,65303
8184,JIGHWOEWQYU,DIV,MHOKEAXAYBURG,NM,22017
4824,TETGAIVEIGH,BYPA,QEUDEAZUOYKIRK,CA,50450
2014,RAEFIECO,RDGE,KYTHOQEUSTADT,OR,36741
7652,MARDOUMYOU,CIRCL,LEULYUKOURFIELD,TX,52051
3083,CUEKETSEE,PIKES,WAEVEIGHHSHIRE,IN,15299
8073,KUYHAYNU,FORG,CUEQOICEIGHFIELD,WA,74880
2225,FIEWMYUVU,FORG,SEEVEIGHFAUBERG,AZ,84783
9681,DEIDUEGAE,INLET,SEEHOYKAEBOROUGH,AK,13095
3122,FULWEIRAIGH,FRT,MURSUEROESTADT,SC,97984
3938,FORFOUGHNY,MISSN,PEUXOESUYKIRK,MO,85980
4041,MOUGHQREFYOU,EXPRESS,KOURNAIGHLUYVILLE,PA,98446
1997,TIEUXAWVEUE,VIST,JIGHJEIGHCYEFORTH,KS,30269
6582,NOWXEWPOI,SQRE,ROUGHREUEXUFIELD,ND,14241
8474,WOJISWYU,JUNCTON,VEEXEIGHPAIGHBERG,KY,88983
6454,RIEUWOETAE,PIKES,KUYZEYKOWBURY,FL,93744
7152,QIEUVAWGUY,FRRY,WAWNEOMULFIELD,HI,13007
4159,VAIGHPYEFOUGH,HARBR,PEUWEUEHISFORTH,IN,74098
6757,PIHOIXHO,TRNPK,NOWTEOGEOSTADT,MD,38444
3211,SUOYKIEWMIGH,BRKS,LUEVOAPUOYFORTH,AS,13127
5377,QREKIGHJUY,STS,VAECYUHOWBURY,DC,24969
7392,GEEKOQER,MNTNS,HIEUJYUPOOBROUGH,IA,43377
7402,SAEFIEWZ,GRVS,RISZULWUYSHIRE,MT,72331
5919,JEIGHGAUVAE,SPNGS,MIEWHEUEPEEFORTH,KY,62039
5753,WAEGIEMEA,MNTNS,CREZIEVIEWFURT,CO,27788
7921,GIEWZIGHXUR,JUNCTN,SEECEAQYUFIELD,WI,90675
3236,GETREOWUE,ML,COUDISKULKIRK,VI,73036
9721,DOWKHOHEW,PLZA,LYEGOEWPOUKIRK,WY,34032
4716,GEWQOUKEIGH,RAD,TARWUOYDAUBOROUGH,LA,31408
9316,XHOMAIKOY,STRT,JEOTOURQHOFIELD,OK,47905
3100,XOEWDOUGHKOO,RTE,PAIGHVEYJIEFIELD,SD,65484
3925,MEIGHJOEWTUE,FRRY,COUGHTORKOUGHBURG,AK,23829
9012,KOADESIE,BGS,HOUGHLEYCOURBROUGH,WA,20264
6566,KOUMOIKOI,FORG,QHOZLREFURT,TN,82365
5204,NEIPUOYWUR,HARB,QOOKOUNORBOROUGH,IL,81924
7646,GEAUPAYQYU,TPKE,DAWLUOYNREFORD,NY,15103
8114,PEEPIGHXAI,HRBOR,KEAHYUGEYBERG,SC,11872
6038,CEWXOAGOO,HIWY,FEAHIEWWIEBURY,AP,39778
2030,MUYCOYJEIGH,VST,SUOYNAIWOYFORD,MS,56410
5928,TIEUVAIGHJUY,EXTNSN,MEWGORDOUFORD,NC,99279
3029,HEWZOREI,WY,LIEVORDEUSTADT,IL,17881
6170,SOYXOUGHHU,CRCLE,QEUEXOYRIEUFURT,SD,85420
6944,XAESOEWLOW,RADIEL,DOQURKEOBURY,AS,23246
4832,LISQARGHO,GLNS,CEWDIEUHEUBOROUGH,TX,72965
8697,CEIGHWEEWER,DIV,GORJEYJISSHIRE,SD,58806
5135,JOUDEUPEA,SPRNG,WHOKOEDAUKIRK,GU,28407
4464,NOIPOURWOI,HT,GEECEWPIEUSHIRE,DE,31911
2844,ROOXEEZY,SUMITT,WAUDYQHOFURT,AR,90956
9273,VOONOURMEIGH,CRSSNG,CJUEWIBROUGH,NC,17085
2826,HOWTOUGHHY,STATN,NOEWQIGERBURY,CT,82685
2591,TEIJUECOE,CRSNT,MIECAUXEYBURY,VT,58071
6055,ZUOYHYFYU,TERR,CYRAIGHTEEBERG,PA,23113
6840,TISROAXAIGH,HIGHWY,LUOYQICIEUBURY,AA,92748
5886,ZEWFYOUQUR,EXPRESS,XOUDEOTEUEBERG,GU,62575
9677,LYMAYGOY,CIRS,XHOPOWGEAUSTADT,ME,61629
1140,DYWEWSRE,HBRS,SIEWXLAIBROUGH,OH,55332
8014,RHOJIGHFOY,FORESTS,CUTOHAIGHSHIRE,CO,90430
6757,VEEVETEY,AVNUE,TUYFOURKOUBURG,MS,80773
6381,MARVOFI,CRCLE,XEUEHEUMAIGHVILLE,KS,86350
4788,GPAUHEU,TUNNELS,REUXEIVURBROUGH,MN,78246
7990,LEAGEAXIGH,SPRNG,NUOYQOEMAIGHVILLE,WI,57964
8656,DEEFAIGHXOA,CYN,QYOUGELAYBURG,VI,11381
3146,GIEUSOWGUR,FORG,RIGHJOOTOURVILLE,MS,33689
7316,TRESEIGHZAR,LNDNG,VEEPYEPEYFURT,IN,73514
4581,PIKERGUE,ISLND,FAIGHDEHISKIRK,MD,35001
2012,XEYDUQHO,VST,GEUXOWGOEKIRK,HI,40965
9191,WAEGAEROI,EXPR,SOADOIFEAUBOROUGH,PR,89888
8752,JEIMUZOE,EXPRESS,SAULOOCEUEVILLE,FL,57637
3976,QEOMOUGOU,GRDEN,PEEGUYXOWKIRK,SD,58389
4792,ZOENUEVIE,EXP,CAYHURDOUBERG,VT,39463
1424,QORWVYU,LDGE,PURTIGHPYOUKIRK,AP,50380
5189,FOWGYMOU,SUMIT,QHOPETCYBROUGH,TX,24470
6889,QARLEUEMYU,DRS,CEADIEUPEAUSHIRE,VI,74596
3183,ZIERAEDEO,FREEWY,GURKEWLEEFORTH,NY,83470
5601,QEOSEYGOY,AVNUE,HEYPEAREOFORTH,WA,67761
3645,CARFEUKIEU,AVEN,VOSOURROURSHIRE,NJ,62954
4744,TAIGHNEDOA,STRAVN,FARHEIZREFURT,NM,51130
2651,GEYMEIZYE,ANNEX,LINORGOEBURG,OR,65290
6966,DORLAULEA,MTIN,POAWUEQETBROUGH,OK,47197
5378,ZHOQARREUE,CRSSNG,FUGEAJOAFIELD,SC,52169
5076,CEIGHZOWKIEW,EXPRESS,REUJUVEWFORTH,AR,14875
1036,FETKEYJEW,CURV,FEIGHPOWWEYBURG,KY,61732
2860,LRERHOSIGH,FRDS,KOWPIGHKYOUBOROUGH,AR,44899
5171,JITHOJEAU,CRST,SUOYZULXEBROUGH,WV,69543
3009,RAYPEUELUY,BYPAS,ZUYGOICEIBURY,AE,83900
1890,TOYTEAUGIS,CIRS,RUPEUENEUEBOROUGH,MO,28750
5754,DUETUOYNEY,BYU,WUYVIEMOAFURT,PR,65163
3797,GORDURTOA,JCTN,NEAUFOURLYEFIELD,FL,47076
4609,VUYGOUMEO,BRKS,LIWYOUNISHIRE,MS,19089
6843,WEEWUOYQYE,JCTN,JYEMULTURFIELD,PR,94457
6835,HEIXAUWIGH,CIRC,DUEDEANIEFORTH,MT,55886
3924,QELINUL,LGTS,SOOWYUMOISHIRE,GA,18799
3423,WYUNIGHGUL,STR,SOANUREIGHBURG,PA,41087
9484,CISHOEHY,STRVN,CARSOITAYFURT,OK,11191
2909,SEEKULCOO,BOTTM,KEIGHSIGOOFIELD,WA,17785
1004,VARKYOUVOU,RTE,POYHULNAIGHFORD,SD,26373
6929,COURKEYNOEW,MTIN,COUXUOYGORFORD,KS,29738
8209,PYUSREHAIGH,EXPRESS,GYOUMEEWIEWFORD,SD,90965
4607,NEAUFOUGHKER,WY,SOYNIGHGEWBOROUGH,NJ,80387
4507,SOAMEVOY,SHOAR,SERJITEASTADT,IL,61417
4186,ZORZOWNOO,HWAY,SEUGOUSFORD,AK,87140
3979,FARFAEFOA,VIST,GIEKOURDISFORD,AS,64176
1171,MOGUGYU,HIWY,ZOURSEUENETFORTH,MT,56014
7377,LOYXAIGHGET,SQRS,GOOXYQOEWFORD,NY,69275
6705,XODIGHKAIGH,STRAVN,VUEKEYWEUEFURT,TN,37111
3011,LRILHO,JCTNS,KIEUKESYEVILLE,CT,45691
4894,GUJEAUQOU,EXTENSIONS,QYOUROAPIEUBROUGH,WV,50933
8648,LEAPEYVOY,SQU,SOOZEUEZAIBROUGH,SC,55525
7169,LREKAIGHRER,CNTER,PISHYEZORBERG,PR,56923
7552,TUOYJGOO,BRNCH,NYEDOURDARFURT,GU,95540
1310,LEOVEROUGH,PRR,TAWJEWPULBOROUGH,AS,63819
8592,WOWREYSI,BRNCH,ZOONIMEAUVILLE,SD,21782
9104,JUOYFEQUR,SPNG,FEOKSBERG,AA,41436
9622,HAYFAIZIGH,HOLLOWS,HERFAUMUBERG,SC,26114
2540,RAIGHZAESUOY,EXPRESS,LRESYSUYFIELD,UT,56045
1098,LOUGHQIECEUE,EXPR,JYUSIEUQAUBURY,UT,78212
9288,MOURWAUWEY,CRCLE,GYOUMERDUFORTH,KY,18654
3735,VOMOEWMUOY,SPRNG,WUOYWAIGHQOURFORTH,AS,50145
8898,SEEPEAUDI,INLET,SYUTEUQARSTADT,SD,83524
9704,XAEKYZOW,EXPRESS,SIEWMOITAEBURY,IL,79806
2408,QOIGUKOO,DVD,QREMEUCEAUBURY,KS,69039
2593,XEYRIEWSI,CENT,TAIHYEWETBOROUGH,SC,45905
5571,MOURKEOCEIGH,JCTN,VUYCUYQOURFURT,MI,64053
1800,JOOMRERAW,CIRC,FOINREIGHBURY,DC,57544
6873,HEETREWEI,CRSENT,VIGHVREFOUGHBERG,MI,76824
4838,JEALISWYE,CNYN,LEIGHCIEUXIEWBOROUGH,DC,72029
1462,VOAKAIGHK,JCTNS,RAIGOUTEAUBOROUGH,NM,26159
3766,MEAJEWLEI,CENTRE,KESAUWYOUSTADT,ID,98363
5918,XISLAWSOW,CENT,SIEZOHYUSTADT,NJ,64880
2946,JEEVUEREY,CVS,RYEWHOTISKIRK,AZ,48873
7457,GUENETFER,MSN,COWEOFEIGHFURT,NV,79056
3140,QUEMUOYJAE,GROV,SOFAWZEAUBURG,AA,94688
5820,TAYTUEDYOU,PARKWY,FEUEMUEQOURBURG,MO,27665
5068,CIWAIGHRAE,OPAS,QOALIEWXUYSTADT,SD,14095
3567,XUYDEPOY,VILLAG,JOADIFAIGHBURG,FL,81024
7871,GIEWISJEO,GATEWY,RIGHJUDULBOROUGH,IA,29431
6137,XURGEIQOA,BLUF,JUYCYELOURFORTH,IN,11364
5498,MOUGHZOURCET,TRFY,MULCOUKAUBROUGH,AP,90977
5774,CIEUPERHUL,EXPW,QEAUKOAHOUFURT,ND,24704
3202,CUDEFUL,GRDNS,CIEWQEWLEAUBURY,HI,37179
3005,MEOMIEWQE,GRDEN,RORHEUETEYSTADT,AK,80515
2017,DUETIEUNEE,CRSSNG,HERCETHAEBURG,GU,58293
9631,MOUMUYMHO,TRLS,WOYFSUBROUGH,CA,88665
7807,JAYCETFOE,DVD,DEOKIJOABOROUGH,NJ,74906
8287,MODOYPUY,BLUF,PIEUZULZEIFORD,VA,76432
2256,RIEUFILOU,PKY,GEOKOYREYBROUGH,WI,44010
1932,WEIGHQUOYDOO,MEDOWS,GERREAUHEUEBURY,MP,73308
7685,SHOGOUGHQOA,PSGE,RERTREZUEBURG,LA,41590
3576,CEUTOURVUY,CYN,SAUQREMEFORD,KY,94036
1853,XUYQULD,BGS,FEYVEULYOUBURY,FL,22243
8311,TOOSEYREW,PKY,ZEUNUOYHOUGHBOROUGH,AR,91494
9829,POYTAIGHDI,TPKE,RAIGHGETQEYBURG,OR,88909
5696,PEUNARTYU,CNTR,JOAXURZEUEBURY,AK,38240
7837,JOEDYOUWUOY,FRWAY,QOYDEAWAIBOROUGH,SC,97792
1890,LUYLARXUE,CMP,KEOQEUZEIFIELD,VI,21622
6417,LETMOFAW,EXPRESS,RYJIFORKIRK,AZ,54020
8137,LOEWFEEHE,HARBR,JREJYTOURKIRK,NM,66883
1763,HEWWAISET,UNS,XIELUOYDEAFORD,AR,75084
2531,KEAUJYOUCRE,LGTS,VUOYLEIFIGHBROUGH,VA,61030
9270,SOEWGICO,HIWY,WOWVURSEEFURT,NC,97858
7630,DUTIEWOU,CIRC,NEIGHVURNKIRK,WI,31874
3232,TOIPEISOUGH,GROV,QOUGHDAWPAIGHFORD,VT,48540
2913,VEUHRERIEW,VLLY,ZYOUNOAPEUBURY,WY,39321
2258,XAIGHMYOUMIE,CMNS,TOWJAYJAWFORTH,WI,99401
3098,DAWWUYFAR,FORG,DOURQOAGOABERG,MI,24214
1787,TULMEAUZYOU,FORG,JURKEIGHRURBURY,AS,83913
8061,QYEFOJI,VILL,FERXYUCARFORTH,TN,24855
5937,NOASUOYTEW,SPRNG,XEIQARNEYFURT,VA,79659
6576,JEAUCULQUY,MISSN,FARKIEWFYBOROUGH,DE,71453
5461,RIXAUFHO,WY,FEAUCOWTETFORTH,GU,54860
8642,JOEWTEECAU,BLUF,LEIGHHAYKUYBROUGH,AK,98233
4940,CEUQIEFOE,STRAV,JOUGHVOEGUOYBERG,FL,17928
9347,XIEUDOWQOEW,ML,GEIQAUSOEFURT,GU,86525
6684,NAWSEUETHO,CRSENT,QHOGOUJOUFIELD,VT,60159
8708,KAIXOINOA,ANNX,MYEQOITEAUVILLE,LA,88528
9339,GUYVULWY,ANNX,ZUYCULJISFURT,AE,48273
4804,HORRAIGHDYU,CYN,COEQETJOEWFORD,MT,43494
9865,VHOKEWET,BG,PAYNUQEWFIELD,MO,56805
1171,VAYKOEWVAW,TRLS,MREDISPRESHIRE,WY,61636
8884,COYVISGEA,FORESTS,REUESORQOWFORTH,AS,16156
2208,VOEWWOWZEE,SQU,CIEUJAYKAIBOROUGH,AP,57402
4959,ZEUEXIS,HLLW,TIEUCOIWOBROUGH,WI,37037
7452,XEAFOULER,EXP,XOURDAIGHSOOBURY,MO,23864
5606,WRENEUEWAR,VST,TAIGARRIEBOROUGH,AE,60077
7610,VHOJULJAI,STRAVN,HUYFAIWARFORTH,MD,12055
6256,FEYJOEWTUY,STN,PAYRYWOUGHBROUGH,WA,32883
7419,XURDOODEIGH,VILLAG,GEAHHOXOURSHIRE,KS,66566
9670,FORROUGHJEO,PLZA,HEEFOATIGHBOROUGH,LA,54170
5444,WIEJOASOEW,ML,NEUJOIJOSTADT,NE,33637
5348,GULSEWCAIGH,JUNCTON,SUYKEVEYSTADT,PA,76454
6167,ZEUXUVOY,KNOL,RUEJEAWOURFIELD,NV,82315
4975,RRENENEO,BLFS,TYOUTORFSTADT,IL,84774
4804,ZIEWJOURMUL,VIADCT,HEYMIJOWBURY,IN,28071
9893,TOOVEAUCOW,GROV,KOIVOAZYSTADT,PA,59569
8896,MOOVOUVE,VALLY,HYOUHAYLYBURG,ND,15048
1324,TYESEYMEA,JCTN,TOYWEUDOAFIELD,DE,37597
8911,REWNOURVEUE,CIRS,SEYPISMAEBROUGH,MI,92033
4651,TDOEWEA,DVD,PUEZOUGHWIEUVILLE,RI,75829
3549,FIESOPE,FORESTS,DOWPAYTARKIRK,KY,51138
4656,LUEJORGOW,VILLG,ZURDOFOBERG,IA,89380
2127,RUCIEULEE,HWAY,RISZERXOYVILLE,MD,20650
4725,LEUEPORCOUR,HRBOR,JOAZYENESTADT,AK,76404
2826,TEUNAITAE,HARB,WOTIQREFORTH,KS,93219
2331,LEYHEWVO,HWAY,ZHOCEAMARFIELD,UT,57866
9726,QOETOOHRE,SHOAR,TERCOICORSTADT,TN,67005
2044,ZOEWMOUVAY,DRIV,GULZOAJSHIRE,DE,56797
7831,COEWNOUROU,TRACKS,HEWFEWCEASTADT,DC,45579
4136,QEWKUOYTYE,CNTER,WAIGHKISVOUGHBURG,DE,24661
9075,GETLOEWVIEU,SHOAR,QOYLUSERBURY,GA,71855
6958,DISQORVUR,SQU,GAUKIEWXEYBOROUGH,CO,36151
1660,FYKUELAW,BOULV,CIRIGHNIEWBURY,AR,95582
7467,JAWHUERY,BLFS,WIGHXIEDEIGHBURG,OK,63573
9289,VISVOYKUY,CAUSWA,ZEKYUHERSHIRE,VA,17612
9463,SOUCYOUHY,BOULV,SAIGHXEAZIFURT,NC,16099
4892,PAWTIJAI,AVN,TIEURULCOBURY,NV,87857
